[
  {
    "latitude": 42.3594013,
    "longitude": -83.0637931,
    "name": "Detroit Institute of Arts",
    "address_city": "Detroit",
    "address_zipcode": "48202",
    "address_state": "MI",
    "address_number": "5200",
    "address_street": "Woodward Avenue",
    "website": "https://dia.org/",
    "operator": "Detroit Institute of Arts, Inc.",
    "wikipedia": "en:Detroit Institute of Arts",
    "air_conditioning": "yes",
    "wheelchair": "yes",
    "toilet": "yes",
    "opening_hours": "Tu-Th 09:00-16:00; Fr 09:00-21:00; Sa 10:00-15:00; Su 10:15-17:00",
    "museum": "art",
    "building": "yes",
    "building_levels": "3",
    "uniqueType": "museum"
  },
  {
    "latitude": 42.2894995,
    "longitude": -85.5882549,
    "name": "Kalamazoo Institute of Arts",
    "address_city": "Kalamazoo",
    "address_zipcode": "49007",
    "address_number": "314",
    "address_street": "South Park Street",
    "phone": "+1 269 349 7775",
    "website": "https://www.kiarts.org/",
    "wikipedia": "en:Kalamazoo Institute of Arts",
    "building": "yes",
    "uniqueType": "museum"
  },
  {
    "latitude": 42.81244,
    "longitude": -86.01753,
    "name": "Dekker Huis Museum",
    "address_city": "Zeeland",
    "address_zipcode": "49464",
    "address_number": "37",
    "address_street": "East Main Avenue",
    "phone": "+1-616-772-4079",
    "website": "https://www.zeelandhistory.org/",
    "operator": "Zeeland Historical Society",
    "building": "yes",
    "uniqueType": "museum"
  },
  {
    "latitude": 42.96559,
    "longitude": -85.67684,
    "name": "Grand Rapids Public Museum",
    "address_city": "Grand Rapids",
    "address_zipcode": "49504",
    "address_state": "MI",
    "address_number": "272",
    "address_street": "Pearl Street Northwest",
    "website": "https://www.grpm.org/",
    "opening_hours": "Mo-Fr 09:00-17:00; Sa,Su 10:00-17:00",
    "building": "yes",
    "uniqueType": "museum"
  },
  {
    "latitude": 41.9227,
    "longitude": -84.61678,
    "name": "Will Carleton Poor House Museum",
    "building": "yes",
    "uniqueType": "museum"
  },
  {
    "latitude": 42.5728931,
    "longitude": -83.249641,
    "name": "Cranbrook Institute of Science",
    "address_city": "Bloomfield Hills",
    "address_zipcode": "48304",
    "address_state": "MI",
    "address_number": "39221",
    "address_street": "Woodward Ave",
    "operator": "Cranbrook Schools",
    "building": "yes",
    "uniqueType": "museum"
  },
  {
    "latitude": 44.63015,
    "longitude": -86.24346,
    "name": "Oliver Art Center",
    "alt_name": "Elizabeth Lane Oliver Center for the Arts",
    "address_city": "Frankfort",
    "address_zipcode": "49635",
    "address_state": "MI",
    "address_number": "132",
    "address_street": "Coast Guard Road",
    "website": "https://oliverartcenterfrankfort.org/",
    "historic": "maritime",
    "museum": "art",
    "building": "yes",
    "start_date": "1934",
    "description": "Three floors with two exhibition galleries, three spacious classrooms, a demonstration kitchen, office space, storage and artwork preparation space, an outdoor deck, and ceramics studio space, all accessible to people with disabilities.",
    "uniqueType": "museum"
  },
  {
    "latitude": 42.2075366,
    "longitude": -83.1486846,
    "name": "Wyandotte Museums",
    "address_city": "Wyandotte",
    "address_zipcode": "48192",
    "address_state": "MI",
    "address_number": "2624",
    "address_street": "Biddle Avenue",
    "website": "https://wyandotte.net/arts_and_culture/museums.php",
    "fee": "no",
    "museum": "history",
    "uniqueType": "museum"
  },
  {
    "latitude": 42.7324589,
    "longitude": -84.5639583,
    "name": "Michigan Library and Historical Center",
    "address_city": "Lansing",
    "address_zipcode": "48915",
    "address_state": "MI",
    "address_number": "702",
    "address_street": "West Kalamazoo Street",
    "website": "https://www.michigan.gov/libraryofmichigan/",
    "wikipedia": "en:Library of Michigan",
    "fee": "no",
    "building": "public",
    "uniqueType": "museum"
  },
  {
    "latitude": 42.7316702,
    "longitude": -84.4819939,
    "name": "Michigan State University Museum",
    "address_city": "East Lansing",
    "address_zipcode": "48824",
    "address_state": "MI",
    "address_number": "409",
    "address_street": "West Circle Drive",
    "phone": "+1-517-355-2370",
    "website": "https://www.museum.msu.edu/",
    "operator": "Michigan State University",
    "opening_hours": "Mo 09:00-17:00, Tu 09:00-20:00, We 09:00-17:00, Th 09:00-17:00, Fr 09:00-17:00, Sa 10:00-05:00",
    "museum": "science",
    "building": "yes",
    "uniqueType": "museum"
  },
  {
    "latitude": 42.7324848,
    "longitude": -84.5481067,
    "name": "Impression 5 Science Center",
    "address_number": "200",
    "address_street": "Museum Drive",
    "phone": "+1-517-485-8116",
    "website": "https://impression5.org/",
    "wikipedia": "en:Impression 5 Science Center",
    "opening_hours": "Tu-Fr 09:30-16:00; Sa 09:30-17:00; Su 11:30-17:00",
    "fee": "yes",
    "building": "yes",
    "uniqueType": "museum"
  },
  {
    "latitude": 42.7314171,
    "longitude": -84.5483486,
    "name": "R. E. Olds Transportation Museum",
    "alt_name": "Ransom Eli Olds Transportation Museum",
    "address_number": "240",
    "address_street": "Museum Drive",
    "phone": "+1-517-372-0529",
    "website": "https://www.reoldsmuseum.org/",
    "facebook": "https://www.facebook.com/REOldsTransportationMuseum",
    "wikipedia": "en:R. E. Olds Transportation Museum",
    "opening_hours": "Tu-Sa 10:00-17:00; Su 12:00-17:00",
    "fee": "yes",
    "museum": "history",
    "building": "yes",
    "uniqueType": "museum"
  },
  {
    "latitude": 42.368564,
    "longitude": -83.0652216,
    "name": "Ford Piquette Avenue Plant",
    "address_city": "Detroit",
    "address_zipcode": "48202",
    "address_state": "MI",
    "address_number": "461",
    "address_street": "Piquette Street",
    "wikipedia": "en:Ford Piquette Avenue Plant",
    "building": "industrial",
    "uniqueType": "museum"
  },
  {
    "latitude": 42.353689,
    "longitude": -83.0611738,
    "name": "Museum of Contemporary Art Detroit",
    "address_city": "Detroit",
    "address_zipcode": "48201",
    "address_state": "MI",
    "address_number": "4454",
    "address_street": "Woodward Avenue",
    "phone": "+1 (313) 832-6622",
    "website": "https://mocadetroit.org/",
    "opening_hours": "We-Su 11:00-17:00; Th,Fr 11:00-20:00",
    "fee": "no",
    "museum": "art",
    "building": "yes",
    "uniqueType": "museum"
  },
  {
    "latitude": 42.3593929,
    "longitude": -83.0613506,
    "name": "Charles H. Wright Museum of African-American History",
    "address_city": "Detroit",
    "address_zipcode": "48201",
    "address_state": "MI",
    "address_number": "315",
    "address_street": "East Warren Avenue",
    "website": "https://www.thewright.org/",
    "wikipedia": "en:Charles H. Wright Museum of African American History",
    "wheelchair": "yes",
    "fee": "yes",
    "museum": "history",
    "building": "yes",
    "uniqueType": "museum"
  },
  {
    "latitude": 42.3594655,
    "longitude": -83.0675028,
    "name": "Detroit Historical Museum",
    "address_city": "Detroit",
    "address_zipcode": "48202",
    "address_state": "MI",
    "address_number": "5401",
    "address_street": "Woodward Avenue",
    "phone": "+1 313 833 1805",
    "website": "https://detroithistorical.org/",
    "operator": "City of Detroit Historical Commission",
    "wikipedia": "en:Detroit Historical Museum",
    "internet_access": "wlan",
    "wheelchair": "yes",
    "opening_hours": "We-Sa 10:00-17:00; Su 13:00-17:00",
    "fee": "yes",
    "museum": "history",
    "building": "yes",
    "uniqueType": "museum"
  },
  {
    "latitude": 42.3588471,
    "longitude": -83.0617688,
    "name": "Michigan Science Center",
    "address_city": "Detroit",
    "address_zipcode": "48202",
    "address_state": "MI",
    "address_number": "5020",
    "address_street": "John R Street",
    "phone": "+1 313 577 8400",
    "website": "https://www.mi-sci.org/",
    "wikipedia": "en:Michigan Science Center",
    "opening_hours": "Tu-Fr 10:00-15:00; Sa 10:00-17:00; Su 12:00-17:00",
    "museum": "science",
    "building": "yes",
    "uniqueType": "museum"
  },
  {
    "latitude": 42.3650226,
    "longitude": -83.0739701,
    "name": "Detroit Children’s Museum",
    "alt_name": "Detroit Edison Substation",
    "address_city": "Detroit",
    "address_zipcode": "48202",
    "address_state": "MI",
    "address_number": "6134",
    "address_street": "2nd Avenue",
    "museum": "children",
    "building": "yes",
    "uniqueType": "museum"
  },
  {
    "latitude": 45.7869047,
    "longitude": -84.7363843,
    "name": "Colonial Fort Michilimackinac",
    "website": "https://www.mackinacparks.com/parks-and-attractions/colonial-michilimackinac/",
    "historic": "fort",
    "wikipedia": "en:Fort Michilimackinac",
    "uniqueType": "museum"
  },
  {
    "latitude": 42.3023662,
    "longitude": -83.2336915,
    "name": "The Henry Ford",
    "address_city": "Dearborn",
    "address_zipcode": "48124-5029",
    "address_state": "MI",
    "address_number": "20900",
    "address_street": "Oakwood Boulevard",
    "website": "https://www.thehenryford.org/visit/henry-ford-museum",
    "operator": "The Henry Ford (foundation)",
    "wikipedia": "en:The Henry Ford",
    "wheelchair": "yes",
    "opening_hours": "Mo-Su 9:30-17:00",
    "fee": "yes",
    "building": "yes",
    "uniqueType": "museum"
  },
  {
    "latitude": 42.3641625,
    "longitude": -83.0885793,
    "name": "Motown Museum",
    "alt_name": "Hitsville USA",
    "address_city": "Detroit",
    "address_state": "MI",
    "address_number": "2648",
    "address_street": "West Grand Boulevard",
    "website": "https://www.motownmuseum.org/",
    "fee": "yes",
    "building": "yes",
    "description": "Also known as Hitsville USA",
    "uniqueType": "museum"
  },
  {
    "latitude": 42.3585874,
    "longitude": -83.0626125,
    "fee": "yes",
    "uniqueType": "museum"
  },
  {
    "latitude": 42.2985662,
    "longitude": -83.0980027,
    "name": "Great Lakes Indian Museum",
    "alt_name": "Building 117",
    "historic": "military",
    "museum": "history",
    "building": "yes",
    "start_date": "1906",
    "uniqueType": "museum"
  },
  {
    "latitude": 42.2992323,
    "longitude": -83.098523,
    "name": "Tuskegee Airmen National Museum at Historic Fort Wayne",
    "alt_name": "Building 210",
    "address_city": "Detroit",
    "address_zipcode": "48209",
    "address_state": "MI",
    "address_number": "6325",
    "address_street": "Jefferson Avenue West",
    "website": "https://tuskegeemuseum.org/locations/",
    "historic": "military",
    "museum": "history",
    "building": "yes",
    "start_date": "1931",
    "uniqueType": "museum"
  },
  {
    "latitude": 42.33442,
    "longitude": -82.9857206,
    "name": "Dossin Great Lakes Museum",
    "address_city": "Detroit",
    "address_zipcode": "48207",
    "address_state": "MI",
    "address_number": "100",
    "address_street": "Strand Drive",
    "opening_hours": "Mo-Fr 10:00-17:00",
    "museum": "maritime",
    "payment_credit_cards": "yes",
    "payment_discover_card": "yes",
    "payment_mastercard": "yes",
    "payment_visa": "yes",
    "building": "yes",
    "building_levels": "1",
    "uniqueType": "museum"
  },
  {
    "latitude": 42.438551,
    "longitude": -85.4250813,
    "name": "Gilmore Car Museum",
    "address_city": "Corners",
    "address_zipcode": "49060",
    "address_state": "MI",
    "address_number": "6865",
    "address_street": "West Hickory Road",
    "website": "https://www.gilmorecarmuseum.org/",
    "wikipedia": "en:Gilmore Car Museum",
    "uniqueType": "museum"
  },
  {
    "latitude": 42.2459013,
    "longitude": -83.6084207,
    "name": "Ypsilanti Automotive Heritage Museum",
    "museum": "transport",
    "building": "yes",
    "uniqueType": "museum"
  },
  {
    "latitude": 44.7647398,
    "longitude": -85.5881514,
    "name": "Dennos Museum Center",
    "address_city": "Traverse City",
    "address_zipcode": "49686",
    "address_state": "MI",
    "address_number": "1701",
    "address_street": "East Front Street",
    "phone": "+1-231-995-1055",
    "website": "https://www.dennosmuseum.org/",
    "opening_hours": "11:00-16:00",
    "fee": "yes",
    "museum": "art",
    "building": "yes",
    "uniqueType": "museum"
  },
  {
    "latitude": 42.1425573,
    "longitude": -83.1792704,
    "name": "Trenton Historical Museum",
    "building": "yes",
    "uniqueType": "museum"
  },
  {
    "latitude": 41.9564134,
    "longitude": -84.7704893,
    "name": "Allen Area Historical Society Museum",
    "operator": "Allen Area Historical Society",
    "building": "yes",
    "uniqueType": "museum"
  },
  {
    "latitude": 42.2768475,
    "longitude": -83.7413198,
    "name": "Kelsey Museum of Archaeology",
    "address_city": "Ann Arbor",
    "address_zipcode": "48109",
    "address_number": "434",
    "address_street": "South State Street",
    "website": "https://lsa.umich.edu/kelsey",
    "operator": "University of Michigan",
    "wikipedia": "en:Kelsey Museum of Archaeology",
    "wheelchair": "yes",
    "opening_hours": "Tu-Fr 09:00-16:00; Sa,Su 13:00-16:00; PH,Mo off",
    "fee": "no",
    "museum": "archaeological",
    "building": "yes",
    "uniqueType": "museum"
  },
  {
    "latitude": 42.2755785,
    "longitude": -83.7400897,
    "name": "University of Michigan Museum of Art",
    "address_city": "Ann Arbor",
    "address_zipcode": "48109",
    "address_number": "525",
    "address_street": "South State Street",
    "operator": "University of Michigan",
    "wikipedia": "en:University of Michigan Museum of Art",
    "opening_hours": "Tu-Sa 11:00-17:00; Su 12:00-17:00",
    "fee": "no",
    "museum": "art",
    "building": "yes",
    "uniqueType": "museum"
  },
  {
    "latitude": 42.9637263,
    "longitude": -85.6672362,
    "name": "Grand Rapids Children's Museum",
    "address_city": "Grand Rapids",
    "address_state": "MI",
    "address_number": "11",
    "address_street": "Sheldon Avenue Northeast",
    "building": "yes",
    "uniqueType": "museum"
  },
  {
    "latitude": 42.9651588,
    "longitude": -85.6714582,
    "name": "Grand Rapids Art Museum",
    "address_city": "Grand Rapids",
    "address_zipcode": "49503",
    "address_state": "MI",
    "address_number": "101",
    "address_street": "Monroe Center Street Northwest",
    "phone": "+1 616 831 1000",
    "website": "https://www.artmuseumgr.org/",
    "wikipedia": "en:Grand Rapids Art Museum",
    "fee": "yes",
    "building": "yes",
    "uniqueType": "museum"
  },
  {
    "latitude": 42.967925,
    "longitude": -85.6771564,
    "name": "Gerald R. Ford Presidential Museum",
    "alt_name": "Gerald R. Ford Museum",
    "address_city": "Grand Rapids",
    "address_zipcode": "49504",
    "address_state": "MI",
    "address_number": "303",
    "address_street": "Pearl Street Northwest",
    "wheelchair": "yes",
    "fee": "yes",
    "building": "yes",
    "uniqueType": "museum"
  },
  {
    "latitude": 45.8489572,
    "longitude": -84.6194151,
    "name": "Biddle House",
    "address_city": "Mackinac Island",
    "address_zipcode": "49757",
    "address_state": "MI",
    "address_number": "7406",
    "address_street": "Market Street",
    "website": "https://www.mackinacparks.com/parks-and-attractions/biddle-house/",
    "operator": "Mackinac Historic State Parks",
    "museum": "history",
    "building": "yes",
    "uniqueType": "museum"
  },
  {
    "latitude": 45.7797901,
    "longitude": -84.7204611,
    "name": "U.S. Coast Guard Cutter Mackinaw",
    "address_city": "Mackinaw City",
    "address_zipcode": "49701",
    "address_state": "MI",
    "address_number": "131",
    "address_street": "South Huron AVe",
    "website": "https://www.themackinaw.org/",
    "operator": "Icebreaker Mackinaw Maritime Museum",
    "historic": "ship",
    "wikipedia": "en:USCGC Mackinaw (WAGB-83)",
    "building": "yes",
    "start_date": "1944",
    "description": "U.S. Coast Guard Cutter MACKINAW WAGB-83 is known as the “Queen of the Great Lakes” and “The Largest Icebreaker on the Great Lakes”. She was built during World War II to meet the heavy demands of war materials and transportation during the winter months.",
    "uniqueType": "museum"
  },
  {
    "latitude": 42.2415568,
    "longitude": -84.7526202,
    "name": "Gardner House Museum",
    "address_number": "509",
    "address_street": "S Superior St",
    "website": "http://www.albionhistoricalsociety.org/gardner.php",
    "building": "yes",
    "uniqueType": "museum"
  },
  {
    "latitude": 46.4998988,
    "longitude": -84.3359407,
    "name": "SS Valley Camp",
    "website": "https://www.saulthistoricsites.com/museum-ship-valley-camp/",
    "historic": "ship",
    "wikipedia": "en:SS Valley Camp",
    "building": "ship",
    "start_date": "1917",
    "uniqueType": "museum"
  },
  {
    "latitude": 42.3959928,
    "longitude": -85.3864329,
    "name": "Overlook Museum",
    "building": "yes",
    "uniqueType": "museum"
  },
  {
    "latitude": 42.2365161,
    "longitude": -83.7295023,
    "name": "UM Research Museums Center",
    "address_city": "Ann Arbor",
    "address_zipcode": "48108",
    "address_state": "MI",
    "address_number": "3600",
    "address_street": "Varsity Drive",
    "website": "https://lsa.umich.edu/rmc",
    "operator": "University of Michigan",
    "museum": "science",
    "building": "commercial",
    "uniqueType": "museum"
  },
  {
    "latitude": 42.0766143,
    "longitude": -83.1982646,
    "name": "Marshland Museum",
    "uniqueType": "museum"
  },
  {
    "latitude": 42.7850108,
    "longitude": -83.1458828,
    "name": "Oakland Township Historical Museum",
    "museum": "history",
    "building": "yes",
    "uniqueType": "museum"
  },
  {
    "latitude": 42.2392541,
    "longitude": -83.5087943,
    "name": "Yankee Air Museum",
    "address_city": "Belleville",
    "address_zipcode": "48111",
    "address_state": "MI",
    "address_number": "47884",
    "address_street": "D Street",
    "phone": "+1-734-483-4030",
    "website": "https://www.yankeeairmuseum.org/",
    "building": "yes",
    "uniqueType": "museum"
  },
  {
    "latitude": 47.2449324,
    "longitude": -88.4530516,
    "name": "Paige Wiard",
    "address_city": "Calumet",
    "address_zipcode": "49913",
    "address_state": "MI",
    "address_number": "109",
    "address_street": "5th Street",
    "website": "https://www.michigan.org/property/paige-wiard-gallery",
    "fee": "no",
    "building": "retail",
    "uniqueType": "museum"
  },
  {
    "latitude": 47.2478869,
    "longitude": -88.4544487,
    "name": "Upper Peninsula Firefighters Museum",
    "address_state": "MI",
    "building": "yes",
    "uniqueType": "museum"
  },
  {
    "latitude": 47.2441556,
    "longitude": -88.452542,
    "name": "Calumet Union Building",
    "address_city": "Calumet",
    "address_zipcode": "49913",
    "address_state": "MI",
    "address_number": "98",
    "address_street": "5th Street",
    "website": "https://www.nps.gov/kewe",
    "operator": "NPS",
    "building": "yes",
    "uniqueType": "museum"
  },
  {
    "latitude": 47.243079,
    "longitude": -88.4513834,
    "name": "Coppertown USA Mining Museum",
    "address_city": "Calumet",
    "address_state": "MI",
    "website": "https://www.nps.gov/places/coppertown-mining-museum.htm",
    "building": "yes",
    "uniqueType": "museum"
  },
  {
    "latitude": 42.2449796,
    "longitude": -83.7111588,
    "name": "Cobblestone Farm",
    "address_city": "Ann Arbor",
    "address_zipcode": "48108",
    "address_state": "MI",
    "address_number": "2781",
    "address_street": "Packard Road",
    "email": "cfinfo@a2gov.org",
    "phone": "+1 734 794 6230",
    "website": "https://www.a2gov.org/departments/Parks-Recreation/parks-places/cobblestone-farm/Pages/default.aspx",
    "operator": "City of Ann Arbor",
    "wikipedia": "en:Cobblestone Farm and Museum",
    "uniqueType": "museum"
  },
  {
    "latitude": 42.7329537,
    "longitude": -84.4771812,
    "name": "Eli and Edythe Broad Art Museum",
    "address_city": "East Lansing",
    "address_zipcode": "48824",
    "address_state": "MI",
    "address_number": "547",
    "address_street": "East Circle Drive",
    "email": "eebam@msu.edu",
    "phone": "+1 517-884-3900",
    "website": "https://broadmuseum.msu.edu/",
    "wikipedia": "en:Eli and Edythe Broad Art Museum",
    "wheelchair": "yes",
    "opening_hours": "Th-Su 10:00-18:00",
    "fee": "no",
    "building": "yes",
    "building_levels": "2",
    "uniqueType": "museum"
  },
  {
    "latitude": 44.9044533,
    "longitude": -86.0264139,
    "name": "Glen Haven Cannery Boathouse",
    "address_city": "Glen Arbor",
    "address_zipcode": "49636",
    "address_state": "MI",
    "address_street": "Glen Haven Road",
    "website": "https://www.nps.gov/slbe/planyourvisit/cannery-boathouse.htm",
    "operator": "National Park Service",
    "opening_hours": "11:00-17:00",
    "fee": "no",
    "museum": "history",
    "building": "yes",
    "uniqueType": "museum"
  },
  {
    "latitude": 44.9082695,
    "longitude": -86.0335625,
    "name": "Sleeping Bear Point Coast Guard Station Maritime Museum",
    "website": "https://www.nps.gov/places/000/maritime-museum.htm",
    "historic": "maritime",
    "opening_hours": "May-Oct: 11:00-17:00",
    "museum": "history",
    "building": "yes",
    "uniqueType": "museum"
  },
  {
    "latitude": 47.4590118,
    "longitude": -88.1494851,
    "name": "Eagle Harbor Lifesaveing Station",
    "address_city": "Eagle Harbor",
    "address_zipcode": "49950",
    "address_state": "MI",
    "address_number": "9282",
    "address_street": "Marina Road",
    "website": "https://www.keweenawhistory.org/Eagle-Harbor-Lifesaving-Station/",
    "operator": "Keweenaw County Historical Society",
    "historic": "heritage",
    "museum": "history",
    "building": "yes",
    "uniqueType": "museum"
  },
  {
    "latitude": 43.1789031,
    "longitude": -85.2606691,
    "name": "Fighting Falcon Military Museum",
    "address_city": "Greenville",
    "address_state": "MI",
    "address_number": "516",
    "address_street": "West Cass Street",
    "building": "yes",
    "uniqueType": "museum"
  },
  {
    "latitude": 46.6727519,
    "longitude": -86.1398312,
    "building": "yes",
    "building_levels": "2",
    "uniqueType": "museum"
  },
  {
    "latitude": 45.7446467,
    "longitude": -87.043674,
    "name": "Delta County Historical Society",
    "address_zipcode": "49829",
    "address_number": "16",
    "address_street": "Water Plant Road",
    "website": "http://deltahistorical.org/",
    "building": "yes",
    "uniqueType": "museum"
  },
  {
    "latitude": 45.7580487,
    "longitude": -87.0792815,
    "name": "U P Steam & Gas Engine Museum",
    "building": "yes",
    "uniqueType": "museum"
  },
  {
    "latitude": 45.7574555,
    "longitude": -87.0785737,
    "name": "U.P. Steam and Gas Engine Association Agricultural Museum",
    "building": "yes",
    "uniqueType": "museum"
  },
  {
    "latitude": 42.5021039,
    "longitude": -83.3598146,
    "name": "Holocaust Memorial Center",
    "address_state": "MI",
    "website": "https://www.holocaustcenter.org/",
    "wikipedia": "en:Holocaust Memorial Center",
    "building": "yes",
    "uniqueType": "museum"
  },
  {
    "latitude": 42.9795794,
    "longitude": -85.584848,
    "name": "Frederik Meijer Gardens and Sculpture Park",
    "address_city": "Grand Rapids",
    "address_zipcode": "49525",
    "address_state": "MI",
    "address_number": "1000",
    "address_street": "East Beltline Avenue Northeast",
    "website": "https://www.meijergardens.org/",
    "fee": "yes",
    "building": "yes",
    "uniqueType": "museum"
  },
  {
    "latitude": 42.2728381,
    "longitude": -84.9645828,
    "name": "Honolulu House",
    "address_city": "Marshall",
    "address_zipcode": "49068",
    "address_state": "MI",
    "address_number": "107",
    "address_street": "North Kalamazoo Avenue",
    "website": "https://www.marshallhistoricalsociety.org/attractions/1",
    "historic": "residence",
    "wikipedia": "en:Honolulu House",
    "opening_hours": "May-Oct: Mo-Su 11:00-16:30; Apr,Nov,Dec: Sa-Su 11:00-16:30; Jan-Apr closed \"Closed for the Season\"",
    "building": "yes",
    "start_date": "1860",
    "uniqueType": "museum"
  },
  {
    "latitude": 44.7360556,
    "longitude": -83.9470845,
    "name": "Blockhouse",
    "website": "http://www.campbarakel.org/tour/tour.asp?place=blockhouse",
    "building": "yes",
    "uniqueType": "museum"
  },
  {
    "latitude": 42.3953152,
    "longitude": -86.207137,
    "name": "Michigan Flywheelers Museum",
    "address_city": "South Haven",
    "address_zipcode": "49090",
    "address_state": "MI",
    "address_number": "06285",
    "address_street": "68th Street",
    "website": "https://michiganflywheelers.org/",
    "museum": "open_air",
    "uniqueType": "museum"
  },
  {
    "latitude": 42.2934924,
    "longitude": -85.5834077,
    "name": "Kalamazoo Valley Museum",
    "address_city": "Kalamazoo",
    "address_zipcode": "49007",
    "address_number": "230",
    "address_street": "North Rose Street",
    "phone": "+1 269 373 7990",
    "website": "https://kvm.kvcc.edu/",
    "operator": "Kalamazoo Valley Community College",
    "wikipedia": "en:Kalamazoo Valley Museum",
    "building": "yes",
    "uniqueType": "museum"
  },
  {
    "latitude": 41.7197477,
    "longitude": -84.2170458,
    "name": "Morenci Area Historical Society",
    "museum": "local",
    "building": "yes",
    "uniqueType": "museum"
  },
  {
    "latitude": 45.70363,
    "longitude": -85.5638462,
    "name": "Protar Home",
    "uniqueType": "museum"
  },
  {
    "latitude": 44.2402297,
    "longitude": -85.454096,
    "name": "Carl T. Johnson Hunting and Fishing Center",
    "address_city": "Cadillac",
    "address_zipcode": "49601",
    "address_number": "6087",
    "address_street": "State Highway 115",
    "operator": "William Mitchell State Park",
    "building": "yes",
    "uniqueType": "museum"
  },
  {
    "latitude": 43.5144206,
    "longitude": -83.9644939,
    "name": "Marshall M. Fredericks Sculpture Museum",
    "address_city": "University Center",
    "address_zipcode": "48710",
    "address_state": "MI",
    "address_number": "7400",
    "address_street": "Bay Road",
    "phone": "+1 989 964-7125",
    "website": "https://marshallfredericks.org/",
    "operator": "Saginaw Valley State University",
    "opening_hours": "Mo-Sa 11:00-17:00",
    "fee": "no",
    "building": "yes",
    "uniqueType": "museum"
  },
  {
    "latitude": 43.0366433,
    "longitude": -85.6707719,
    "name": "Grand Rapids Model Railroad Historical Society",
    "website": "https://www.grmrhs.org/",
    "building": "yes",
    "start_date": "1914",
    "uniqueType": "museum"
  },
  {
    "latitude": 42.5828829,
    "longitude": -83.3594738,
    "name": "Greater West Bloomfield Historical Society",
    "address_city": "West Bloomfield Township",
    "address_zipcode": "48323",
    "address_state": "MI",
    "address_number": "3951",
    "address_street": "Orchard Lake Road",
    "building": "yes",
    "uniqueType": "museum"
  },
  {
    "latitude": 42.3341402,
    "longitude": -83.8801134,
    "name": "Dexter Area Museum",
    "address_city": "Dexter",
    "address_zipcode": "48130",
    "address_state": "MI",
    "address_number": "3443",
    "address_street": "Inverness Street",
    "building": "yes",
    "uniqueType": "museum"
  },
  {
    "latitude": 42.8124485,
    "longitude": -86.0176175,
    "building": "yes",
    "uniqueType": "museum"
  },
  {
    "latitude": 42.406311,
    "longitude": -86.2733928,
    "name": "Jensen Annex #2",
    "website": "https://www.michiganmaritimemuseum.org/launching-a-legacy/jensen-property/",
    "operator": "Michigan Maritime Museum",
    "historic": "maritime",
    "museum": "history",
    "building": "yes",
    "uniqueType": "museum"
  },
  {
    "latitude": 42.406224,
    "longitude": -86.2739343,
    "name": "Padnos Boat Shed",
    "operator": "Michigan Maritime Museum",
    "historic": "maritime",
    "museum": "history",
    "building": "yes",
    "description": "A working exhibit and a hub of activity on the Museum Campus. Classes and programs are offered year-round including boat building, small craft restorations, presentations, and annual maintenance of the Museum’s exhibits and on-water fleet.",
    "uniqueType": "museum"
  },
  {
    "latitude": 42.406533,
    "longitude": -86.2739873,
    "name": "Herbert Van Oort Boathouse",
    "address_city": "South Haven",
    "address_zipcode": "49090",
    "address_state": "MI",
    "address_number": "260",
    "address_street": "Dyckman Avenue",
    "website": "https://www.michiganmaritimemuseum.org/explore/exhibits/van-oort-boathouse/#",
    "operator": "Michigan Maritime Museum",
    "historic": "maritime",
    "museum": "history",
    "building": "yes",
    "description": "Among the finest collections of wooden rescue boats used by the U.S. Lifesaving Service and Coast Guard. The museum is home to four fully restored rescue boats ranging from the Merryman, an 1881 rescue boat, to a 1950s 36ft. motor lifeboat.",
    "uniqueType": "museum"
  },
  {
    "latitude": 42.406676,
    "longitude": -86.2745201,
    "name": "Michigan Maritime Museum",
    "address_city": "South Haven",
    "address_zipcode": "49090",
    "address_state": "MI",
    "address_number": "260",
    "address_street": "Dyckman Avenue",
    "website": "https://michiganmaritimemuseum.org/",
    "wikipedia": "en:Michigan Maritime Museum",
    "museum": "history",
    "building": "yes",
    "uniqueType": "museum"
  },
  {
    "latitude": 45.0147831,
    "longitude": -85.6085945,
    "name": "Eyaawing Museum and Cultural Center",
    "building": "yes",
    "uniqueType": "museum"
  },
  {
    "latitude": 43.6233388,
    "longitude": -84.2537708,
    "name": "Alden B. Dow Home and Studio",
    "address_city": "Midland",
    "address_zipcode": "48640",
    "address_state": "MI",
    "address_number": "315",
    "address_street": "Post Street",
    "phone": "+1-866-315-7678",
    "website": "https://www.abdow.org/",
    "historic": "yes",
    "wikipedia": "en:Alden Dow House and Studio",
    "wheelchair": "no",
    "opening_hours": "Mo-Sa 14:00+;Fr-Sa 10:00+",
    "building": "yes",
    "uniqueType": "museum"
  },
  {
    "latitude": 43.6146008,
    "longitude": -84.248104,
    "name": "Santa House",
    "website": "https://www.midlandfoundation.org/santa-house/",
    "operator": "Midland Area Community Foundation",
    "building": "yes",
    "uniqueType": "museum"
  },
  {
    "latitude": 43.6005637,
    "longitude": -84.2936577,
    "name": "Chippewa Nature Center",
    "address_city": "Midland",
    "address_zipcode": "48640",
    "address_state": "MI",
    "address_number": "400",
    "address_street": "Badour Road",
    "phone": "+1 989 631 0830",
    "building": "yes",
    "uniqueType": "museum"
  },
  {
    "latitude": 43.6077801,
    "longitude": -84.2872086,
    "name": "Nature Study Building",
    "building": "yes",
    "uniqueType": "museum"
  },
  {
    "latitude": 42.961188,
    "longitude": -85.6631894,
    "name": "Caulkins Law Office",
    "operator": "Grand Rapids Public Museum",
    "building": "yes",
    "uniqueType": "museum"
  },
  {
    "latitude": 43.6251429,
    "longitude": -84.2550846,
    "name": "Alden B. Dow Home and Studio",
    "address_city": "Midland",
    "address_zipcode": "48640",
    "address_state": "MI",
    "address_number": "315",
    "address_street": "Post Street",
    "phone": "+1-866-315-7678",
    "website": "https://www.abdow.org/",
    "operator": "Alden B. & Vada B. Dow Creativity Foundation",
    "historic": "yes",
    "wikipedia": "en:Alden Dow House and Studio",
    "opening_hours": "Mo-Sa 14:00+;Fr-Sa 10:00+",
    "uniqueType": "museum"
  },
  {
    "latitude": 43.6278592,
    "longitude": -84.2664992,
    "name": "Bradley Home",
    "address_city": "Midland",
    "address_zipcode": "48640",
    "address_state": "MI",
    "address_number": "3200",
    "address_street": "Cook Road",
    "historic": "yes",
    "building": "house",
    "uniqueType": "museum"
  },
  {
    "latitude": 43.6281001,
    "longitude": -84.266342,
    "name": "Carriage House",
    "address_city": "Midland",
    "address_zipcode": "48640",
    "address_state": "MI",
    "address_number": "3210",
    "address_street": "Cook Road",
    "building": "yes",
    "uniqueType": "museum"
  },
  {
    "latitude": 43.6291675,
    "longitude": -84.2665089,
    "name": "Herbert D. Doan Midland County History Center",
    "address_city": "Midland",
    "address_zipcode": "48640",
    "address_state": "MI",
    "address_number": "3417",
    "address_street": "West Main Street",
    "operator": "Midland County Historical Society",
    "opening_hours": "Sep-Jun: Mo-Sa 07:00-18:00",
    "building": "yes",
    "uniqueType": "museum"
  },
  {
    "latitude": 43.6276328,
    "longitude": -84.2660805,
    "name": "Herbert H. Dow Historical Museum",
    "address_city": "Midland",
    "address_zipcode": "48640",
    "address_state": "MI",
    "address_number": "3100",
    "address_street": "Cook Road",
    "building": "yes",
    "uniqueType": "museum"
  },
  {
    "latitude": 42.9032927,
    "longitude": -85.7832111,
    "name": "Jenison Museum",
    "wheelchair": "no",
    "building": "yes",
    "uniqueType": "museum"
  },
  {
    "latitude": 41.9152358,
    "longitude": -83.3989029,
    "name": "Monroe Historical Museum",
    "address_state": "MI",
    "website": "http://www.monroehistoricalsociety.org/",
    "opening_hours": "We 12:00-15:00; Sa 11:45-15:00",
    "building": "yes",
    "uniqueType": "museum"
  },
  {
    "latitude": 43.2300335,
    "longitude": -86.3321934,
    "name": "Silversides Museum",
    "alt_name": "Great Lakes Naval Memorial and Museum",
    "address_city": "Muskegon",
    "address_zipcode": "49441",
    "address_state": "MI",
    "address_number": "1346",
    "address_street": "Lake Ave Bluff",
    "phone": "+1-231-755-1230",
    "website": "https://silversidesmuseum.org/",
    "historic": "military",
    "museum": "military",
    "building": "yes",
    "uniqueType": "museum"
  },
  {
    "latitude": 41.9311758,
    "longitude": -83.461277,
    "name": "Fair History Museum",
    "building": "yes",
    "uniqueType": "museum"
  },
  {
    "latitude": 41.931686,
    "longitude": -83.4629719,
    "name": "Eby Log Cabin",
    "building": "yes",
    "uniqueType": "museum"
  },
  {
    "latitude": 42.3080884,
    "longitude": -83.2401158,
    "name": "McFadden-Ross House",
    "address_number": "915",
    "address_street": "South Brady Street",
    "phone": "+1-313-565-3000",
    "building": "yes",
    "uniqueType": "museum"
  },
  {
    "latitude": 45.7788629,
    "longitude": -84.7732589,
    "name": "Mackinaw City Heritage Village",
    "address_city": "Mackinaw City",
    "address_zipcode": "49701",
    "address_state": "MI",
    "address_number": "1425",
    "address_street": "West Central Avenue",
    "operator": "Mackinaw Historical Society",
    "uniqueType": "museum"
  },
  {
    "latitude": 45.7771215,
    "longitude": -84.7721217,
    "building": "yes",
    "uniqueType": "museum"
  },
  {
    "latitude": 45.7771387,
    "longitude": -84.7713007,
    "building": "yes",
    "uniqueType": "museum"
  },
  {
    "latitude": 45.7771379,
    "longitude": -84.7707293,
    "building": "yes",
    "uniqueType": "museum"
  },
  {
    "latitude": 45.7772973,
    "longitude": -84.7706615,
    "building": "yes",
    "uniqueType": "museum"
  },
  {
    "latitude": 45.7768017,
    "longitude": -84.7711513,
    "building": "yes",
    "uniqueType": "museum"
  },
  {
    "latitude": 42.5110696,
    "longitude": -84.6560282,
    "name": "Michigan's G.A.R. Memorial Hall & Museum",
    "address_city": "Eaton Rapids",
    "address_zipcode": "48827",
    "address_state": "MI",
    "address_number": "224",
    "address_street": "South Main Street",
    "building": "yes",
    "uniqueType": "museum"
  },
  {
    "latitude": 46.0064142,
    "longitude": -84.4298133,
    "name": "Old Hessel Schoolhouse Museum",
    "museum": "history",
    "building": "yes",
    "uniqueType": "museum"
  },
  {
    "latitude": 41.7872385,
    "longitude": -86.7400321,
    "name": "New Buffalo Pere Marquette Depot",
    "building": "yes",
    "uniqueType": "museum"
  },
  {
    "latitude": 41.7866705,
    "longitude": -86.740259,
    "name": "New Buffalo Railroad Museum",
    "address_city": "New Buffalo",
    "address_state": "MI",
    "address_number": "530",
    "address_street": "Whittaker Street",
    "email": "ask@new-buffalo-railroad-museum.org",
    "website": "https://new-buffalo-railroad-museum.org/",
    "fee": "donation",
    "building": "yes",
    "uniqueType": "museum"
  },
  {
    "latitude": 46.5411537,
    "longitude": -87.3955245,
    "name": "Marquette Regional History Center",
    "address_city": "Marquette",
    "address_zipcode": "49855",
    "address_state": "MI",
    "address_number": "145",
    "address_street": "West Spring Street",
    "website": "https://www.marquettehistory.org/",
    "wheelchair": "yes",
    "opening_hours": "Mo-Fr 10:00-17:00; We 10:00-20:00; Sa 10:00-15:00; PH off",
    "fee": "yes",
    "building": "yes",
    "uniqueType": "museum"
  },
  {
    "latitude": 46.5356464,
    "longitude": -88.1090587,
    "name": "Michigamme Museum",
    "building": "yes",
    "uniqueType": "museum"
  },
  {
    "latitude": 46.5218128,
    "longitude": -87.5648658,
    "name": "Michigan Iron Industry Museum",
    "address_city": "Negaunee",
    "address_zipcode": "49866",
    "address_state": "MI",
    "address_number": "73",
    "address_street": "Forge Road",
    "website": "https://www.michigan.gov/mhc/museums/miim",
    "wheelchair": "yes",
    "opening_hours": "Tu-Su 10:00-4:00;We-Sa 10:00-16:00",
    "fee": "no",
    "building": "yes",
    "uniqueType": "museum"
  },
  {
    "latitude": 46.4918463,
    "longitude": -87.6763051,
    "name": "Cliffs Shaft Museum",
    "fee": "no",
    "building": "yes",
    "uniqueType": "museum"
  },
  {
    "latitude": 46.5405399,
    "longitude": -87.3943521,
    "name": "Upper Peninsula Children's Museum",
    "address_city": "Marquette",
    "address_zipcode": "49855",
    "address_state": "MI",
    "address_street": "West Baraga Avenue",
    "phone": "+1-906-226-3911",
    "fee": "yes",
    "building": "museum",
    "uniqueType": "museum"
  },
  {
    "latitude": 46.3384911,
    "longitude": -87.3823676,
    "name": "K.I. Sawyer Heritage Air Museum",
    "address_city": "Gwinn",
    "address_zipcode": "49841",
    "address_state": "MI",
    "address_number": "402",
    "address_street": "3rd Street",
    "operator": "K.I. Sawyer Heritage Air Museum",
    "opening_hours": "We-Su 13:00-17:00",
    "museum": "history",
    "building": "yes",
    "uniqueType": "museum"
  },
  {
    "latitude": 46.5031377,
    "longitude": -87.6655545,
    "name": "U.S. National Ski and Snowboard Hall of Fame",
    "address_city": "Ishpeming",
    "address_zipcode": "48949",
    "address_state": "MI",
    "address_number": "610",
    "address_street": "Palms Avenue",
    "website": "https://skihall.com/",
    "opening_hours": "Sep 01-Jun 01 Mo-Fr 09:00-16:00; Jun 01-Sep 01 Mo-Sa 09:00-16:00",
    "fee": "yes",
    "building": "yes",
    "uniqueType": "museum"
  },
  {
    "latitude": 42.3795787,
    "longitude": -84.1799514,
    "name": "Waterloo Farm Museum",
    "building": "residential",
    "uniqueType": "museum"
  },
  {
    "latitude": 43.5983576,
    "longitude": -85.265146,
    "name": "Little River School House",
    "building": "yes",
    "uniqueType": "museum"
  },
  {
    "latitude": 42.5111641,
    "longitude": -83.1613809,
    "name": "Royal Oak Historical Society",
    "address_city": "Royal Oak",
    "address_zipcode": "48073",
    "address_state": "MI",
    "address_number": "1411",
    "address_street": "West Webster Road",
    "building": "yes",
    "uniqueType": "museum"
  },
  {
    "latitude": 46.475309,
    "longitude": -89.9408348,
    "name": "Wakefield Historical Society",
    "address_city": "Wakefield",
    "address_zipcode": "49968",
    "address_state": "MI",
    "address_number": "306",
    "address_street": "Sunday Lake Street",
    "building": "yes",
    "uniqueType": "museum"
  },
  {
    "latitude": 46.8720299,
    "longitude": -89.3172062,
    "name": "Ontonagon County Historical Society Museum",
    "address_city": "Ontonagon",
    "address_zipcode": "49953",
    "address_state": "MI",
    "address_number": "422",
    "address_street": "River Street",
    "website": "https://www.ontonagonmuseum.org/",
    "building": "yes",
    "uniqueType": "museum"
  },
  {
    "latitude": 44.7406198,
    "longitude": -84.6631587,
    "name": "Visitor's Center",
    "building": "yes",
    "uniqueType": "museum"
  },
  {
    "latitude": 45.8496984,
    "longitude": -84.6187877,
    "name": "Stuart House City Museum",
    "address_city": "Mackinac Island",
    "address_zipcode": "49757",
    "address_state": "MI",
    "address_number": "7342",
    "address_street": "Market Street",
    "phone": "+1-906-847-8181",
    "website": "http://www.mightymac.org/stuarthousecitymuseum.htm",
    "building": "yes",
    "uniqueType": "museum"
  },
  {
    "latitude": 45.8511128,
    "longitude": -84.6154058,
    "name": "The Richard & Jane Manoogian Mackinac Art Museum",
    "address_city": "Mackinac Island",
    "address_zipcode": "49757",
    "address_state": "MI",
    "address_number": "7070",
    "address_street": "Main Street",
    "wikipedia": "en:Richard and Jane Manoogian Mackinac Art Museum",
    "building": "yes",
    "uniqueType": "museum"
  },
  {
    "latitude": 42.885178,
    "longitude": -86.0174133,
    "name": "Old Borculo Schoolhouse Museum",
    "building": "yes",
    "uniqueType": "museum"
  },
  {
    "latitude": 42.2809783,
    "longitude": -83.384486,
    "name": "Wayne Historical Museum",
    "address_state": "MI",
    "building": "yes",
    "uniqueType": "museum"
  },
  {
    "latitude": 42.4667323,
    "longitude": -83.3816187,
    "name": "Governor Warner Mansion",
    "museum": "history",
    "building": "yes",
    "uniqueType": "museum"
  },
  {
    "latitude": 42.5159148,
    "longitude": -83.0932387,
    "name": "Red Oaks Nature Center",
    "building": "yes",
    "uniqueType": "museum"
  },
  {
    "latitude": 42.2817885,
    "longitude": -83.7464587,
    "name": "Ann Arbor Hands-On Museum",
    "address_city": "Ann Arbor",
    "address_zipcode": "48104",
    "address_state": "MI",
    "address_number": "220",
    "address_street": "East Ann Street",
    "phone": "+1-734-995-5439",
    "website": "https://www.aahom.org/",
    "wikipedia": "en:Ann Arbor Hands-On Museum",
    "building": "commercial",
    "building_levels": "4",
    "smoking": "no",
    "uniqueType": "museum"
  },
  {
    "latitude": 42.2082926,
    "longitude": -83.4910086,
    "name": "Belleville Area Museum",
    "phone": "+1-734-697-1944",
    "building": "yes",
    "uniqueType": "museum"
  },
  {
    "latitude": 42.3435603,
    "longitude": -83.0904281,
    "name": "The Huckleberry Explorers Club Museum & Gardens & General Store",
    "address_city": "Detroit",
    "address_zipcode": "48208",
    "address_state": "MI",
    "address_number": "2660",
    "address_street": "Buchanan Street",
    "opening_hours": "Mo 16:00-19:00, Sa 15:00-18:00, Su 15:30-18:00",
    "museum": "art",
    "building": "house",
    "uniqueType": "museum"
  },
  {
    "latitude": 42.7510828,
    "longitude": -84.5520974,
    "name": "Turner-Dodge House",
    "address_number": "100",
    "address_street": "East North Street",
    "phone": "+1-517-483-4220",
    "website": "https://www.lansingmi.gov/938/Turner-Dodge-House",
    "wikipedia": "en:Turner-Dodge House",
    "toilet": "yes",
    "building": "house",
    "building_levels": "2",
    "uniqueType": "museum"
  },
  {
    "latitude": 43.6214833,
    "longitude": -84.2532319,
    "name": "The Pines of Dow Gardens",
    "historic": "yes",
    "building": "house",
    "uniqueType": "museum"
  },
  {
    "latitude": 42.2997836,
    "longitude": -83.48734,
    "name": "Canton Historical Museum",
    "address_number": "1022",
    "address_street": "South Canton Center Road",
    "wikipedia": "en:The Canton Historical Society and Museum",
    "opening_hours": "Tu,Th 13:00-16:00; Sa 11:00-15:00",
    "building": "yes",
    "uniqueType": "museum"
  },
  {
    "latitude": 42.4341528,
    "longitude": -83.4800485,
    "name": "Mill Race Historic Village",
    "operator": "Northville Historical Society",
    "opening_hours": "dawn-dusk",
    "museum": "open_air",
    "uniqueType": "museum"
  },
  {
    "latitude": 42.3622335,
    "longitude": -82.9817102,
    "name": "Pewabic Pottery",
    "address_city": "Detroit",
    "address_zipcode": "48214",
    "address_state": "MI",
    "address_number": "10125",
    "address_street": "East Jefferson Avenue",
    "building": "yes",
    "uniqueType": "museum"
  },
  {
    "latitude": 42.2508477,
    "longitude": -84.2141954,
    "name": "The Lost Railway Museum",
    "address_city": "Grass Lake",
    "address_zipcode": "49240",
    "address_state": "MI",
    "address_number": "142",
    "address_street": "West Michigan Avenue",
    "building": "commercial",
    "uniqueType": "museum"
  },
  {
    "latitude": 45.1296495,
    "longitude": -85.6150188,
    "name": "Northport Area Museum",
    "address_city": "Northport",
    "address_zipcode": "49670",
    "address_state": "MI",
    "address_number": "118",
    "address_street": "East Nagonaba Street",
    "museum": "local",
    "building": "yes",
    "uniqueType": "museum"
  },
  {
    "latitude": 43.1214617,
    "longitude": -86.2658148,
    "name": "Gillette Visitor Center",
    "building": "yes",
    "uniqueType": "museum"
  },
  {
    "latitude": 43.2343475,
    "longitude": -86.2512793,
    "name": "Muskegon Art Museum",
    "address_city": "Muskegon",
    "address_zipcode": "49440",
    "address_state": "MI",
    "address_number": "296",
    "address_street": "West Webster Avenue",
    "phone": "+1 231 720 2570",
    "website": "https://muskegonartmuseum.org/",
    "wheelchair": "yes",
    "fee": "yes",
    "building": "yes",
    "uniqueType": "museum"
  },
  {
    "latitude": 46.6709364,
    "longitude": -85.9846468,
    "name": "Pickle Barrel House Museum",
    "opening_hours": "Jul-Aug Mo-Su 13:00-16:00; Sep-Jun Sa,Su 13:00-16:00",
    "building": "yes",
    "uniqueType": "museum"
  },
  {
    "latitude": 45.8668034,
    "longitude": -84.7215644,
    "name": "Michilimackinac Historical Society & Fort de Baude Museum",
    "address_city": "Saint Ignace",
    "address_zipcode": "49781",
    "address_state": "MI",
    "building": "yes",
    "uniqueType": "museum"
  },
  {
    "latitude": 47.4593902,
    "longitude": -88.1602699,
    "name": "The Keweenaw History Museum",
    "building": "yes",
    "uniqueType": "museum"
  },
  {
    "latitude": 47.4598578,
    "longitude": -88.1599425,
    "name": "The Maritime Museum",
    "building": "yes",
    "uniqueType": "museum"
  },
  {
    "latitude": 42.954279,
    "longitude": -85.6589087,
    "name": "Meyer May House",
    "address_city": "Grand Rapids",
    "address_state": "MI",
    "address_number": "450",
    "address_street": "Madison Avenue Southeast",
    "website": "https://meyermayhouse.steelcase.com/",
    "building": "yes",
    "description": "Meyer May House has been designed by architect Frank Lloyd Wright",
    "uniqueType": "museum"
  },
  {
    "latitude": 46.644292,
    "longitude": -88.4802244,
    "name": "Ford Historic Sawmill Museum",
    "building": "yes",
    "uniqueType": "museum"
  },
  {
    "latitude": 46.4517981,
    "longitude": -86.6077333,
    "name": "Munising Coast Guard Station Boathouse",
    "address_city": "Munising",
    "address_zipcode": "49862",
    "address_state": "MI",
    "address_number": "N8391",
    "address_street": "Sand Point Road",
    "website": "https://www.exploringthenorth.com/pictrocks/lifeboat.html",
    "historic": "maritime",
    "building": "yes",
    "uniqueType": "museum"
  },
  {
    "latitude": 41.925541,
    "longitude": -83.3670264,
    "name": "Vietnam Veterans Historical Museum",
    "address_state": "MI",
    "phone": "+1-734-240-7780",
    "website": "https://www.co.monroe.mi.us/government/departments_offices/museum/vietnam_veterans_museum.html",
    "operator": "Monroe County Museum;VVA Chapter 142",
    "wheelchair": "yes",
    "opening_hours": "May-Sep: We 10:00-16:00; Sa 10:00-16:00",
    "building": "yes",
    "uniqueType": "museum"
  },
  {
    "latitude": 41.9163396,
    "longitude": -83.3987968,
    "name": "Monroe County Labor History Museum",
    "address_city": "Monroe",
    "address_zipcode": "48161",
    "address_state": "MI",
    "address_number": "41",
    "address_street": "West Front Street",
    "website": "https://monroelabor.org/",
    "opening_hours": "Sa 10:00-14:00",
    "building": "yes",
    "uniqueType": "museum"
  },
  {
    "latitude": 42.8521663,
    "longitude": -83.4460361,
    "name": "Old Mill Museum",
    "address_city": "Ortonville",
    "address_zipcode": "48462",
    "address_state": "MI",
    "address_street": "Mill Street",
    "building": "yes",
    "uniqueType": "museum"
  },
  {
    "latitude": 46.0944847,
    "longitude": -85.4501612,
    "name": "Top of The Lake Snowmobile Museum",
    "address_city": "Naubinway",
    "address_zipcode": "49762",
    "address_state": "MI",
    "address_number": "W11660",
    "address_street": "US 2",
    "phone": "+1-906-477-6298",
    "website": "https://www.snowmobilemuseum.com/",
    "building": "yes",
    "uniqueType": "museum"
  },
  {
    "latitude": 46.6775875,
    "longitude": -85.9716142,
    "name": "Lightkeeper's Museum",
    "address_city": "Grand Marais",
    "address_zipcode": "49839",
    "address_state": "MI",
    "address_street": "Coast Guard Loop",
    "website": "http://www.grandmaraismichigan.com/historicalsociety/index.html#historyoflightkeepershouse",
    "operator": "Grand Marais Historical Society",
    "historic": "maritime",
    "building": "yes",
    "uniqueType": "museum"
  },
  {
    "latitude": 46.3448776,
    "longitude": -85.9476914,
    "name": "Seney's Museum and Historic Depot",
    "address_city": "Seney",
    "address_zipcode": "49883",
    "address_state": "MI",
    "address_street": "Railroad Street",
    "phone": "+1-906-748-0831",
    "building": "yes",
    "uniqueType": "museum"
  },
  {
    "latitude": 46.4784151,
    "longitude": -90.0502854,
    "name": "Bessemer Area Historical Society",
    "building": "yes",
    "uniqueType": "museum"
  },
  {
    "latitude": 42.3067388,
    "longitude": -83.2439568,
    "name": "Dearborn Historical Museum",
    "address_city": "Dearborn",
    "address_zipcode": "48124",
    "address_state": "MI",
    "address_number": "21950",
    "address_street": "Michigan Avenue",
    "website": "https://thedhm.com/",
    "wikipedia": "en:Commandant's Quarters (Dearborn, Michigan)",
    "opening_hours": "Tu,Th 10:00-15:00",
    "museum": "local",
    "building": "yes",
    "uniqueType": "museum"
  },
  {
    "latitude": 43.4307017,
    "longitude": -83.9354358,
    "name": "Castle Museum of Saginaw County History",
    "address_city": "Saginaw",
    "address_zipcode": "48607",
    "address_state": "MI",
    "address_number": "500",
    "address_street": "Federal Avenue",
    "phone": "+1-989-752-2861",
    "website": "https://www.castlemuseum.org/",
    "operator": "Historical Society of Saginaw County",
    "wikipedia": "en:Castle Museum (Saginaw, Michigan)",
    "building": "yes",
    "uniqueType": "museum"
  },
  {
    "latitude": 42.3695502,
    "longitude": -83.4061445,
    "name": "Roush Automotive Collection",
    "address_city": "Livonia",
    "address_zipcode": "48150",
    "address_state": "MI",
    "address_number": "11851",
    "address_street": "Market Street",
    "building": "yes",
    "uniqueType": "museum"
  },
  {
    "latitude": 42.9985934,
    "longitude": -82.426164,
    "name": "Thomas Edison Depot Museum",
    "address_number": "510",
    "address_street": "Thomas Edison Parkway",
    "website": "https://www.phmuseum.org/",
    "building": "yes",
    "uniqueType": "museum"
  },
  {
    "latitude": 42.4547538,
    "longitude": -83.6533726,
    "name": "Witch's Hat Depot Museum",
    "building": "yes",
    "uniqueType": "museum"
  },
  {
    "latitude": 42.279018,
    "longitude": -83.7442701,
    "name": "Kempf House Museum",
    "address_city": "Ann Arbor",
    "address_zipcode": "48104",
    "address_number": "312",
    "address_street": "South Division Street",
    "phone": "+1 734 994 4898",
    "website": "https://kempfhousemuseum.org/",
    "wikipedia": "en:Kempf House Museum",
    "fee": "no",
    "building": "yes",
    "uniqueType": "museum"
  },
  {
    "latitude": 42.6300195,
    "longitude": -82.8294215,
    "name": "Selfridge Air Museum",
    "address_city": "Selfridge ANGB",
    "address_zipcode": "48045",
    "address_state": "MI",
    "address_number": "27333",
    "address_street": "C Street",
    "website": "https://selfridgeairmuseum.org/",
    "uniqueType": "museum"
  },
  {
    "latitude": 43.025509,
    "longitude": -83.6755976,
    "name": "Buick Automotive Gallery",
    "building": "yes",
    "uniqueType": "museum"
  },
  {
    "latitude": 45.069033,
    "longitude": -83.4347048,
    "name": "Great Lakes Maritime Heritage Center",
    "address_city": "Alpena",
    "address_zipcode": "49707",
    "address_state": "MI",
    "address_number": "500",
    "address_street": "West Fletcher Street",
    "phone": "+1-989-356-8805",
    "website": "https://thunderbay.noaa.gov/visit/great-lakes-maritime-heritage-center.html",
    "wheelchair": "yes",
    "building": "yes",
    "description": "Experience the rich history of the Great Lakes by exploring the exhibits at the Great Lakes Maritime Heritage Center. Feel the power of a Lake Huron storm while you walk the deck of a life-size schooner or \"swim\" over a shipwreck in the dive tubes!",
    "uniqueType": "museum"
  },
  {
    "latitude": 42.2054244,
    "longitude": -83.2042781,
    "name": "Southgate Historical Museum",
    "address_city": "Southgate",
    "address_zipcode": "48195",
    "address_state": "MI",
    "address_number": "14120",
    "address_street": "Dix-Toledo Highway",
    "phone": "+1-734-258-7430",
    "website": "https://www.southgatehistory.org/",
    "museum": "history",
    "building": "house",
    "start_date": "1993",
    "uniqueType": "museum"
  },
  {
    "latitude": 43.0618966,
    "longitude": -86.226325,
    "name": "Midwest Miniatures Museum",
    "address_city": "Grand Haven",
    "address_zipcode": "49417",
    "address_state": "MI",
    "address_number": "20",
    "address_street": "South 5th Street",
    "building": "yes",
    "uniqueType": "museum"
  },
  {
    "latitude": 42.7875839,
    "longitude": -86.099865,
    "name": "Kruizenga Art Museum",
    "address_city": "Holland",
    "address_zipcode": "49423",
    "address_state": "MI",
    "address_number": "271",
    "address_street": "Columbia Avenue",
    "email": "kruizengamuseum@hope.edu",
    "phone": "+16163956400",
    "website": "https://hope.edu/kam",
    "operator": "Hope College",
    "wikipedia": "en:Kruizenga Art Museum",
    "opening_hours": "Tu-Sa 10:00-16:00",
    "museum": "art",
    "building": "yes",
    "building_levels": "1",
    "uniqueType": "museum"
  },
  {
    "latitude": 44.8786841,
    "longitude": -85.2771942,
    "name": "Alden Depot Museum",
    "address_state": "MI",
    "building": "yes",
    "uniqueType": "museum"
  },
  {
    "latitude": 46.264883,
    "longitude": -84.495541,
    "name": "Kinross Heritage and Military Museum",
    "building": "yes",
    "uniqueType": "museum"
  },
  {
    "latitude": 46.2651497,
    "longitude": -84.4961624,
    "name": "Blacksmith Museum",
    "building": "yes",
    "uniqueType": "museum"
  },
  {
    "latitude": 43.054087,
    "longitude": -85.4691961,
    "name": "Cannon Township Historical Museum",
    "building": "yes",
    "uniqueType": "museum"
  },
  {
    "latitude": 41.9554022,
    "longitude": -83.6594618,
    "name": "Old Mill Museum",
    "address_state": "MI",
    "website": "https://dundeeoldmill.com/",
    "wikipedia": "en:Old Mill Museum (Dundee, Michigan)",
    "wheelchair": "yes",
    "opening_hours": "Mo-Su 12:00-16:00; Tu off; We off; Th off",
    "fee": "no",
    "payment_cash": "yes",
    "payment_credit_cards": "yes",
    "building": "yes",
    "uniqueType": "museum"
  },
  {
    "latitude": 42.7885957,
    "longitude": -86.1088652,
    "name": "Holland Museum",
    "address_city": "Holland",
    "address_zipcode": "49423",
    "address_state": "MI",
    "address_number": "31",
    "address_street": "West 10th Street",
    "website": "https://hollandmuseum.org/venue/holland-museum/",
    "wikipedia": "en:Holland Museum",
    "wheelchair": "yes",
    "fee": "yes",
    "building": "civic",
    "uniqueType": "museum"
  },
  {
    "latitude": 45.3353238,
    "longitude": -84.0578664,
    "name": "Millersburg Detroit & Mackinac Railroad Depot Museum",
    "address_city": "Millersburg",
    "address_zipcode": "49759",
    "address_state": "MI",
    "address_number": "12382",
    "address_street": "Luce Street",
    "museum": "history",
    "building": "yes",
    "uniqueType": "museum"
  },
  {
    "latitude": 42.9125545,
    "longitude": -85.4975717,
    "name": "Cascade Township Museum",
    "historic": "townhall",
    "building": "yes",
    "start_date": "1890",
    "uniqueType": "museum"
  },
  {
    "latitude": 45.3756485,
    "longitude": -84.959236,
    "name": "Little Traverse Historical Society",
    "building": "yes",
    "uniqueType": "museum"
  },
  {
    "latitude": 46.4231324,
    "longitude": -86.6277616,
    "name": "Munising Heritage Center Museum",
    "uniqueType": "museum"
  },
  {
    "latitude": 46.5456898,
    "longitude": -87.3793644,
    "name": "Marquette Maritime Museum",
    "address_state": "MI",
    "website": "https://mqtmaritimemuseum.com/",
    "historic": "maritime",
    "building": "civic",
    "start_date": "1891",
    "uniqueType": "museum"
  },
  {
    "latitude": 42.6181496,
    "longitude": -85.2067088,
    "building": "yes",
    "uniqueType": "museum"
  },
  {
    "latitude": 42.3370325,
    "longitude": -85.2110206,
    "name": "Kingman Museum",
    "address_city": "Battle Creek",
    "address_state": "MI",
    "address_number": "175",
    "address_street": "Limit Street",
    "website": "http://www.kingmanmuseum.org/;https://kingmanmuseum.org/",
    "wikipedia": "en:Kingman Museum",
    "building": "yes",
    "uniqueType": "museum"
  },
  {
    "latitude": 45.0809662,
    "longitude": -83.448792,
    "name": "Besser Museum",
    "address_city": "Alpena",
    "address_zipcode": "49707",
    "address_state": "MI",
    "address_number": "491",
    "address_street": "Johnson Street",
    "email": "bessermuseum@bessermuseum.org",
    "website": "https://www.bessermuseum.org/",
    "wikipedia": "en:Besser Museum for Northeast Michigan",
    "fee": "yes",
    "building": "yes",
    "building_levels": "2",
    "description": "The Besser Museum for Northeast Michigan shall be a community resource that serves to inspire curiosity, foster community pride, and cultivate personal legacy. ",
    "uniqueType": "museum"
  },
  {
    "latitude": 42.6507995,
    "longitude": -82.8213027,
    "name": "Chesterfield Historic Village",
    "website": "https://www.hsmichigan.org/chesterfieldhs/",
    "operator": "Chesterfield Charter Township",
    "museum": "open_air",
    "uniqueType": "museum"
  },
  {
    "latitude": 42.3963026,
    "longitude": -83.0573349,
    "name": "Ukrainian American Archives & Museum",
    "address_city": "Hamtramck",
    "address_zipcode": "48212",
    "address_state": "MI",
    "address_number": "9630",
    "address_street": "Joseph Campau Street",
    "building": "yes",
    "uniqueType": "museum"
  },
  {
    "latitude": 42.8869255,
    "longitude": -85.7706274,
    "historic": "building",
    "building": "school",
    "description": "Schoolhouse #10",
    "uniqueType": "museum"
  },
  {
    "latitude": 42.5990112,
    "longitude": -82.8922184,
    "name": "Michigan Transit Museum",
    "building": "yes",
    "uniqueType": "museum"
  },
  {
    "latitude": 42.5987073,
    "longitude": -82.8821323,
    "building": "yes",
    "uniqueType": "museum"
  },
  {
    "latitude": 41.9846826,
    "longitude": -86.1054052,
    "name": "Dowagiac Museum",
    "building": "yes",
    "uniqueType": "museum"
  },
  {
    "latitude": 43.9396306,
    "longitude": -83.2707837,
    "name": "Caseville Hisrtorical Society Museum",
    "building": "yes",
    "uniqueType": "museum"
  },
  {
    "latitude": 45.5528495,
    "longitude": -84.7847443,
    "name": "Pellston Historical Society Museum",
    "building": "yes",
    "uniqueType": "museum"
  },
  {
    "latitude": 43.161947,
    "longitude": -85.7073243,
    "building": "yes",
    "uniqueType": "museum"
  },
  {
    "latitude": 43.1623731,
    "longitude": -85.7063863,
    "name": "Community House",
    "building": "yes",
    "uniqueType": "museum"
  },
  {
    "latitude": 43.1677511,
    "longitude": -85.7072068,
    "name": "Toledo, Saginaw & Muskegon Railway Depot",
    "building": "yes",
    "uniqueType": "museum"
  },
  {
    "latitude": 43.9557174,
    "longitude": -86.4467994,
    "name": "Sandcastles Children's Museum",
    "address_city": "Ludington",
    "address_zipcode": "49431",
    "address_state": "MI",
    "address_number": "129",
    "address_street": "East Ludington Avenue",
    "website": "https://www.sandcastleschildrensmuseum.com/",
    "opening_hours": "Mo,Fr 09:30-13:00; Sa 09:30-15:00; Su 09:30-16:00",
    "fee": "yes",
    "building": "yes",
    "uniqueType": "museum"
  },
  {
    "latitude": 43.2182926,
    "longitude": -85.5527792,
    "name": "Cedar Springs Museum & Historical Society",
    "building": "yes",
    "uniqueType": "museum"
  },
  {
    "latitude": 43.2185558,
    "longitude": -85.5524124,
    "building": "yes",
    "uniqueType": "museum"
  },
  {
    "latitude": 43.4148406,
    "longitude": -83.9876371,
    "name": "Theodore Roethke House Museum",
    "address_city": "Saginaw",
    "address_state": "MI",
    "address_number": "1805",
    "address_street": "Gratiot Avenue",
    "website": "https://www.friendsofroethke.org/",
    "historic": "yes",
    "building": "house",
    "uniqueType": "museum"
  },
  {
    "latitude": 42.9339323,
    "longitude": -85.3418148,
    "name": "Lowell Area Historical Museum",
    "address_city": "Lowell",
    "address_zipcode": "49331",
    "address_state": "MI",
    "address_number": "325",
    "address_street": "West Main Street",
    "opening_hours": "Mo-We, Fr off; Th, Sa, Su 13:00-16:00",
    "building": "yes",
    "uniqueType": "museum"
  },
  {
    "latitude": 42.9937586,
    "longitude": -83.5122681,
    "building": "yes",
    "uniqueType": "museum"
  },
  {
    "latitude": 43.2526724,
    "longitude": -85.1035112,
    "name": "Heritage Village",
    "museum": "living_history",
    "uniqueType": "museum"
  },
  {
    "latitude": 43.0340405,
    "longitude": -83.5156479,
    "name": "Davison Area Historical Museum",
    "address_city": "Davison",
    "address_zipcode": "48423",
    "address_state": "MI",
    "address_number": "263",
    "address_street": "East 4th Street",
    "building": "yes",
    "uniqueType": "museum"
  },
  {
    "latitude": 43.0340606,
    "longitude": -83.5155239,
    "name": "Wolley Dentist Building",
    "address_city": "Davison",
    "address_zipcode": "48423",
    "address_state": "MI",
    "address_number": "263",
    "address_street": "East 4th Street",
    "building": "yes",
    "uniqueType": "museum"
  },
  {
    "latitude": 43.4372445,
    "longitude": -86.2349752,
    "name": "E. Urner Goodman Owasippe Museum",
    "building": "yes",
    "uniqueType": "museum"
  },
  {
    "latitude": 46.7707266,
    "longitude": -84.9581265,
    "name": "Great Lakes Shipwreck Museum",
    "address_state": "MI",
    "website": "https://www.shipwreckmuseum.com/shipwreck-museum/",
    "museum": "maritime",
    "building": "yes",
    "uniqueType": "museum"
  },
  {
    "latitude": 42.2459424,
    "longitude": -83.6138086,
    "name": "Michigan Firehouse Museum",
    "building": "yes",
    "building_levels": "2",
    "uniqueType": "museum"
  },
  {
    "latitude": 42.2447901,
    "longitude": -83.6128715,
    "name": "Ypsilanti Historical Museum",
    "address_city": "Ypsilanti",
    "address_state": "MI",
    "address_number": "220",
    "address_street": "North Huron Street",
    "email": "yhs.museum@gmail.com",
    "phone": "+1 734-217-8236",
    "website": "https://ypsihistory.org/",
    "operator": "Ypsilanti Historical Society",
    "opening_hours": "Tu-Su 14:00-17:00",
    "museum": "history",
    "building": "yes",
    "building_levels": "2",
    "uniqueType": "museum"
  },
  {
    "latitude": 42.3548512,
    "longitude": -83.1071037,
    "name": "Dabls MBAD African Bead Museum",
    "address_city": "Detroit",
    "address_zipcode": "48202",
    "address_state": "MI",
    "address_number": "6559",
    "address_street": "Grand River Avenue",
    "website": "https://www.mbad.org/",
    "operator": "Olayami Dabls",
    "description": "Large outdoor Africa-centric folk art area",
    "uniqueType": "museum"
  },
  {
    "latitude": 43.0234036,
    "longitude": -83.6795083,
    "name": "Sloan Museum",
    "address_city": "Flint",
    "address_zipcode": "48503",
    "address_state": "MI",
    "address_number": "1221",
    "address_street": "East Kearsley Street",
    "email": "sloan@sloanlongway.org",
    "phone": "+1 810 237 3450",
    "website": "https://sloanlongway.org/sloan/",
    "wheelchair": "yes",
    "opening_hours": "Tu-Sa 10:00-17:00; Su 12:00-17:00",
    "fee": "yes",
    "building": "yes",
    "uniqueType": "museum"
  },
  {
    "latitude": 42.0972416,
    "longitude": -83.2946856,
    "name": "Flat Rock Depot & Museum",
    "address_city": "Flat Rock",
    "address_zipcode": "48134",
    "address_state": "MI",
    "address_number": "28700",
    "address_street": "Arsenal Road",
    "website": "http://flatrocktraindepot.org/",
    "building": "yes",
    "uniqueType": "museum"
  },
  {
    "latitude": 43.030669,
    "longitude": -83.1724366,
    "name": "Attica Museuem",
    "address_city": "Attica",
    "address_zipcode": "48412",
    "address_state": "MI",
    "address_street": "Peppermill Road",
    "building": "yes",
    "uniqueType": "museum"
  },
  {
    "latitude": 43.4345831,
    "longitude": -83.9468386,
    "name": "Mid-Michigan Children's Museum",
    "address_city": "Saginaw",
    "address_zipcode": "48602",
    "address_state": "MI",
    "address_number": "315",
    "address_street": "West Genesee Avenue",
    "website": "https://michildrensmuseum.org/",
    "wheelchair": "yes",
    "opening_hours": "Oct 01-May 01,Jun 01-Sep 01 Tu-Fr 10:00-16:00; Oct 01-May 01,Jun 01-Sep 01 Sa 10:00-17:00; Jun 01-Sep 01 Su 12:00-16:00; May 31 off; Sep 6 off; Nov Th[4] off; Dec 24-25 off",
    "fee": "yes",
    "building": "yes",
    "uniqueType": "museum"
  },
  {
    "latitude": 43.3284589,
    "longitude": -83.7394994,
    "name": "Frankenmuth Historical Museum",
    "address_number": "613",
    "address_street": "South Main Street",
    "website": "https://www.frankenmuthmuseum.org/",
    "toilet": "no",
    "opening_hours": "Mo,Th 10:00-17:00; Fr-Sa 10:00-19:00; Su 12:00-17:00",
    "fee": "yes",
    "museum": "history",
    "building": "yes",
    "uniqueType": "museum"
  },
  {
    "latitude": 42.3224721,
    "longitude": -83.1764616,
    "name": "Arab National Museum",
    "address_city": "Dearborn",
    "address_zipcode": "48126",
    "address_state": "MI",
    "address_number": "13624",
    "address_street": "Michigan Avenue",
    "fax": "+1-313-582-1086",
    "phone": "+1-313-429-2535",
    "website": "https://arabamericanmuseum.org/",
    "wikipedia": "en:Arab American National Museum",
    "building": "yes",
    "uniqueType": "museum"
  },
  {
    "latitude": 42.7213348,
    "longitude": -84.5265416,
    "name": "African World Museum and Resource Center",
    "address_city": "Lansing",
    "address_zipcode": "48912",
    "address_state": "MI",
    "address_number": "1136",
    "address_street": "Shepard Street",
    "building": "yes",
    "uniqueType": "museum"
  },
  {
    "latitude": 45.3848469,
    "longitude": -84.9341234,
    "name": "Bay View Historical Museum",
    "building": "yes",
    "uniqueType": "museum"
  },
  {
    "latitude": 42.2502493,
    "longitude": -83.1783824,
    "name": "Lincoln Park Historical Museum",
    "address_city": "Lincoln Park",
    "address_zipcode": "48146",
    "address_state": "MI",
    "address_number": "1335",
    "address_street": "Southfield Road",
    "email": "lpmuseum@gmail.com",
    "phone": "+1-313-386-3137",
    "website": "https://www.citylp.com/residents/historical_museum/index.php",
    "opening_hours": "We 13:00-18:00; Sa 13:00-18:00",
    "building": "yes",
    "uniqueType": "museum"
  },
  {
    "latitude": 43.3185964,
    "longitude": -83.7355288,
    "name": "Michigan Heroes Museum",
    "address_city": "Frankenmuth",
    "address_zipcode": "48734",
    "address_state": "MI",
    "address_number": "1250",
    "address_street": "Weiss Street",
    "building": "yes",
    "uniqueType": "museum"
  },
  {
    "latitude": 42.43756,
    "longitude": -83.4214728,
    "name": "Historical Village at Greenmead",
    "museum": "open_air",
    "uniqueType": "museum"
  },
  {
    "latitude": 43.0198841,
    "longitude": -83.6840598,
    "name": "Whaley House Musuem",
    "building": "yes",
    "uniqueType": "museum"
  },
  {
    "latitude": 43.5939663,
    "longitude": -83.88868,
    "name": "Bay County Historical Society",
    "address_city": "Bay City",
    "address_zipcode": "48708",
    "address_state": "MI",
    "address_number": "321",
    "address_street": "Washington Avenue",
    "email": "info@bchsmuseum.org",
    "phone": "+1-989-893-5733",
    "website": "http://www.bchsmuseum.org/",
    "wheelchair": "yes",
    "opening_hours": "Mo-Fr 08:00-17:00",
    "building": "yes",
    "uniqueType": "museum"
  },
  {
    "latitude": 46.4969061,
    "longitude": -84.3480231,
    "building": "yes",
    "uniqueType": "museum"
  },
  {
    "latitude": 42.1785596,
    "longitude": -84.6436165,
    "name": "Concord Universalist Church",
    "address_city": "Concord",
    "address_zipcode": "49237-9526",
    "address_state": "MI",
    "address_number": "200",
    "address_street": "Hanover Street",
    "operator": "Hubbard Memorial Museum Foundation",
    "building": "church",
    "uniqueType": "museum"
  },
  {
    "latitude": 47.0312719,
    "longitude": -88.5260434,
    "name": "Chassell Heritage Center",
    "operator": "Chassell Historical Organization",
    "museum": "history",
    "building": "yes",
    "uniqueType": "museum"
  },
  {
    "latitude": 42.5780079,
    "longitude": -84.4412023,
    "name": "Mason Area Historical Museum",
    "address_city": "Mason",
    "address_zipcode": "48854",
    "address_state": "MI",
    "address_number": "200",
    "address_street": "East Oak Street",
    "building": "yes",
    "uniqueType": "museum"
  },
  {
    "latitude": 42.3919831,
    "longitude": -86.2638587,
    "name": "The Bailey Museum and Gardens",
    "address_city": "South Haven",
    "address_zipcode": "49090",
    "address_state": "MI",
    "address_number": "903",
    "address_street": "Bailey Avenue",
    "building": "yes",
    "uniqueType": "museum"
  },
  {
    "latitude": 42.6367664,
    "longitude": -83.2911585,
    "name": "Mythos Museum of Oddities & Curiosities",
    "address_city": "Pontiac",
    "address_zipcode": "48342",
    "address_state": "MI",
    "address_number": "16",
    "address_street": "East Pike Street",
    "website": "https://mythosmuseum.com",
    "building": "yes",
    "building_levels": "2",
    "description": "Real or a myth? Mythos Museum presents a realm of wonder & wow to delight an odd & curious mind!",
    "uniqueType": "museum"
  },
  {
    "latitude": 43.176406,
    "longitude": -83.895091,
    "name": "Montrose Depot",
    "address_city": "Montrose",
    "address_zipcode": "48457",
    "address_state": "MI",
    "address_number": "154",
    "address_street": "West State Street",
    "building": "yes",
    "uniqueType": "museum"
  },
  {
    "latitude": 42.9320683,
    "longitude": -85.2126551,
    "name": "Boston Saranac Historical Society",
    "address_number": "138",
    "address_street": "Bridge Street",
    "website": "https://www.facebook.com/pg/SaranacDepot/",
    "museum": "history",
    "building": "yes",
    "uniqueType": "museum"
  },
  {
    "latitude": 43.4242753,
    "longitude": -83.9536453,
    "name": "Saginaw Art Museum",
    "address_city": "City of Saginaw",
    "address_zipcode": "48602",
    "address_state": "MI",
    "address_number": "1126",
    "address_street": "North Michigan Avenue",
    "opening_hours": "We-Su 12:00-17:00; Mo, Tu off",
    "building": "yes",
    "uniqueType": "museum"
  },
  {
    "latitude": 42.5915142,
    "longitude": -83.5994126,
    "name": "Milford Historical Society",
    "building": "yes",
    "uniqueType": "museum"
  },
  {
    "latitude": 41.9519396,
    "longitude": -86.2981026,
    "name": "Love Creek Nature Center",
    "address_city": "Berrien Center",
    "address_zipcode": "49102",
    "address_state": "MI",
    "address_number": "9292",
    "address_street": "Huckleberry Road",
    "museum": "nature",
    "building": "yes",
    "uniqueType": "museum"
  },
  {
    "latitude": 43.062547,
    "longitude": -83.861819,
    "name": "Flushing Area Museum",
    "address_city": "Flushing",
    "address_zipcode": "48433",
    "address_state": "MI",
    "address_number": "431",
    "address_street": "West Main Street",
    "building": "yes",
    "uniqueType": "museum"
  },
  {
    "latitude": 44.9766386,
    "longitude": -85.2094017,
    "name": "Bellaire Area Historical Society and Museum",
    "address_state": "MI",
    "building": "yes",
    "uniqueType": "museum"
  },
  {
    "latitude": 43.6757349,
    "longitude": -84.3883835,
    "name": "Sanford Historical Museum",
    "address_city": "Sanford",
    "address_zipcode": "48657",
    "address_state": "MI",
    "address_number": "2222",
    "address_street": "Smith Street",
    "building": "yes",
    "uniqueType": "museum"
  },
  {
    "latitude": 42.546789,
    "longitude": -83.2202599,
    "name": "The Birmingham Museum",
    "address_city": "Birmingham",
    "address_zipcode": "48009",
    "address_state": "MI",
    "address_number": "556",
    "address_street": "West Maple Road",
    "building": "yes",
    "uniqueType": "museum"
  },
  {
    "latitude": 42.2936286,
    "longitude": -84.2292839,
    "name": "Michigan Whitetail Hall of Fame Museum",
    "building": "house",
    "uniqueType": "museum"
  },
  {
    "latitude": 46.501877,
    "longitude": -84.3517447,
    "name": "U.S. Weather Bureau",
    "address_city": "Sault Ste Marie",
    "address_zipcode": "49783",
    "address_state": "MI",
    "address_number": "400",
    "address_street": "West Portage Avenue",
    "website": "https://www.shipwreckmuseum.com/historic-u-s-weather-bureau-building/buidling-history/",
    "operator": "Great Lakes Shipwrecks Historical Society",
    "historic": "maritime",
    "museum": "history",
    "building": "yes",
    "uniqueType": "museum"
  },
  {
    "latitude": 45.1091097,
    "longitude": -87.6140214,
    "name": "Menominee County Heritage Museum",
    "address_city": "Menominee",
    "address_zipcode": "49858",
    "address_state": "MI",
    "address_number": "904",
    "address_street": "11th Avenue",
    "phone": "+1-906-863-9000",
    "website": "https://menomineehistory.org/",
    "building": "yes",
    "uniqueType": "museum"
  },
  {
    "latitude": 42.3606184,
    "longitude": -83.0655253,
    "name": "Hellenic Museum of Michigan",
    "address_city": "Detroit",
    "address_zipcode": "48202",
    "address_state": "MI",
    "address_number": "67",
    "address_street": "East Kirby Street",
    "museum": "local_history",
    "building": "yes",
    "uniqueType": "museum"
  },
  {
    "latitude": 42.1409722,
    "longitude": -83.1975704,
    "name": "Trenton Cultural Center",
    "address_city": "Trenton",
    "address_zipcode": "48183",
    "address_state": "MI",
    "address_number": "2427",
    "address_street": "West Road",
    "building": "yes",
    "uniqueType": "museum"
  },
  {
    "latitude": 44.7240316,
    "longitude": -85.8476605,
    "name": "Lake Ann Historical Society Museum",
    "museum": "history",
    "building": "yes",
    "uniqueType": "museum"
  },
  {
    "latitude": 44.8138435,
    "longitude": -86.0590997,
    "name": "Empire Area Museum",
    "address_city": "Empire",
    "address_zipcode": "49630",
    "address_state": "MI",
    "address_number": "11544",
    "address_street": "Lacore Street",
    "website": "https://empiremimuseum.org/",
    "opening_hours": "Jun: Sa 13:00-16:00; Jul-Aug: Tu-Sa 13:00-16:00; Su-Mo off",
    "museum": "local",
    "building": "yes",
    "uniqueType": "museum"
  },
  {
    "latitude": 44.8142827,
    "longitude": -86.0591486,
    "name": "Beeman Barn",
    "building": "yes",
    "uniqueType": "museum"
  },
  {
    "latitude": 43.2927262,
    "longitude": -85.5173278,
    "building": "yes",
    "uniqueType": "museum"
  },
  {
    "latitude": 45.2102865,
    "longitude": -85.5501397,
    "name": "Grand Traverse Lighthouse",
    "historic": "yes",
    "building": "yes",
    "uniqueType": "museum"
  },
  {
    "latitude": 45.356297,
    "longitude": -83.492057,
    "name": "Presque Isle Township Museum",
    "address_state": "MI",
    "building": "yes",
    "uniqueType": "museum"
  },
  {
    "latitude": 42.9896588,
    "longitude": -82.426628,
    "name": "Huron Lightship",
    "address_city": "Port Huron",
    "address_zipcode": "48060",
    "address_state": "MI",
    "address_number": "800",
    "address_street": "Prospect Place",
    "website": "https://www.phmuseum.org/huron-light-ship-museum/",
    "operator": "Port Huron Museums",
    "historic": "ship",
    "museum": "history",
    "building": "yes",
    "uniqueType": "museum"
  },
  {
    "latitude": 43.9530418,
    "longitude": -86.459349,
    "name": "Port of Ludington Maritime Museum",
    "address_city": "Ludington",
    "address_zipcode": "49431",
    "address_state": "MI",
    "address_number": "217",
    "address_street": "South Lakeshore Drive",
    "website": "https://ludingtonmaritimemuseum.org/",
    "operator": "Mason County Historical Society",
    "historic": "maritime",
    "museum": "history",
    "building": "yes",
    "uniqueType": "museum"
  },
  {
    "latitude": 43.4195609,
    "longitude": -85.7993699,
    "name": "Newaygo County Museum and Heritage Center",
    "address_city": "Newaygo",
    "address_zipcode": "49337",
    "address_state": "MI",
    "address_number": "12",
    "address_street": "Quarterline Street",
    "building": "yes",
    "uniqueType": "museum"
  },
  {
    "latitude": 42.1237439,
    "longitude": -85.5296313,
    "name": "Vicksburg Historical Society",
    "museum": "history",
    "building": "yes",
    "uniqueType": "museum"
  },
  {
    "latitude": 44.5163572,
    "longitude": -84.7579014,
    "name": "Civilian Conservation Corps Museum",
    "address_state": "MI",
    "building": "yes",
    "uniqueType": "museum"
  },
  {
    "latitude": 42.810865,
    "longitude": -85.725709,
    "name": "Byron Center Historical Society",
    "building": "yes",
    "uniqueType": "museum"
  },
  {
    "latitude": 44.0228211,
    "longitude": -82.7935156,
    "name": "Pointe Aux Barques Lighthouse Museum",
    "alt_name": "Lightkeepers Dwelling",
    "website": "https://pointeauxbarqueslighthouse.org/",
    "historic": "maritime",
    "building": "yes",
    "start_date": "1908",
    "uniqueType": "museum"
  },
  {
    "latitude": 45.7820131,
    "longitude": -84.7281538,
    "name": "Mackinaw Bridge Museum",
    "address_city": "Mackinaw City",
    "address_zipcode": "49701",
    "address_state": "MI",
    "address_number": "231",
    "address_street": "East Central Avenue",
    "website": "http://www.mightymac.org/bridgemuseum.htm",
    "fee": "no",
    "building": "yes",
    "uniqueType": "museum"
  },
  {
    "latitude": 44.1928204,
    "longitude": -85.0524411,
    "name": "Vogel Store & Museum of Moses",
    "address_city": "McBain",
    "address_zipcode": "49657",
    "address_state": "MI",
    "address_number": "9979",
    "address_street": "South 8 Mile Road",
    "phone": "+1-231-825-2219",
    "building": "yes",
    "uniqueType": "museum"
  },
  {
    "latitude": 46.8733678,
    "longitude": -89.3259569,
    "name": "Ontonagon Lighthouse",
    "operator": "Ontonagon County Historical Society",
    "historic": "lighthouse",
    "museum": "history",
    "building": "yes",
    "start_date": "1884",
    "uniqueType": "museum"
  },
  {
    "latitude": 42.9079497,
    "longitude": -82.4697669,
    "name": "Marysville Historical Museum",
    "website": "https://www.michigan.org/property/marysville-historical-museum",
    "building": "yes",
    "uniqueType": "museum"
  },
  {
    "latitude": 43.821179,
    "longitude": -83.177973,
    "name": "Elkton Heritage Center Museum",
    "address_city": "Elkton",
    "address_state": "MI",
    "address_number": "4910",
    "address_street": "York Street",
    "phone": "+1 989 550 2603",
    "website": "http://thehchs.org/elkton/index.htm",
    "operator": "Elkton Area Historical Society",
    "museum": "history",
    "building": "yes",
    "uniqueType": "museum"
  },
  {
    "latitude": 44.3750526,
    "longitude": -86.0117791,
    "name": "Kaleva Depot Museum",
    "address_state": "MI",
    "uniqueType": "museum"
  },
  {
    "latitude": 44.7439189,
    "longitude": -84.6612008,
    "name": "Logging Museum",
    "address_state": "MI",
    "building": "public",
    "uniqueType": "museum"
  },
  {
    "latitude": 43.804538,
    "longitude": -83.001022,
    "name": "Bad Axe Historical Museum",
    "address_city": "Bad Axe",
    "address_zipcode": "48413",
    "address_state": "MI",
    "address_number": "303",
    "address_street": "North Port Crescent Street",
    "building": "detached",
    "uniqueType": "museum"
  },
  {
    "latitude": 44.0228944,
    "longitude": -82.7941726,
    "name": "Pointe Aux Barques Lifesaving Station",
    "website": "https://pointeauxbarqueslighthouse.org/",
    "historic": "maritime",
    "building": "yes",
    "description": "Established near this site in 1875, decommissioned in 1956. Six Surfmen perished on April 23, 1880 while responding to a distress signal from the lumber scow J.H MAGRUDER.",
    "uniqueType": "museum"
  },
  {
    "latitude": 44.0229076,
    "longitude": -82.7943139,
    "website": "https://pointeauxbarqueslighthouse.org/",
    "historic": "maritime",
    "building": "yes",
    "description": "Established near this site in 1875, decommissioned in 1956. Six Surfmen perished on April 23, 1880 while responding to a distress signal from the lumber scow J.H MAGRUDER.",
    "uniqueType": "museum"
  },
  {
    "latitude": 42.6440598,
    "longitude": -86.2037813,
    "name": "The Old School House",
    "alt_name": "Douglas Union School",
    "address_city": "Douglas",
    "address_zipcode": "49406",
    "address_state": "MI",
    "address_number": "130",
    "address_street": "West Center Street",
    "website": "https://www.sdhistoricalsociety.org/sites/schoolhouse/schoolhouse.php",
    "operator": "Saugatuck-Douglas Historical Society",
    "museum": "history",
    "building": "yes",
    "start_date": "1866",
    "uniqueType": "museum"
  },
  {
    "latitude": 42.6442389,
    "longitude": -86.2033726,
    "name": "Boathouse",
    "alt_name": "Francis Metallic Surfboat",
    "address_city": "Douglas",
    "address_zipcode": "49406",
    "address_state": "MI",
    "address_number": "130",
    "address_street": "West Center Street",
    "website": "https://www.sdhistoricalsociety.org/sites/schoolhouse/boathouse.php",
    "operator": "Saugatuck-Douglas Historical Society",
    "historic": "maritime",
    "museum": "history",
    "building": "yes",
    "start_date": "2011",
    "uniqueType": "museum"
  },
  {
    "latitude": 43.2302597,
    "longitude": -86.3322013,
    "name": "USS Silversides",
    "website": "https://www.museumships.us/subs/silversides",
    "operator": "USS Silversides Museum",
    "historic": "maritime",
    "wikipedia": "en:USS Silversides (SS-236)",
    "building": "yes",
    "start_date": "1941",
    "description": "Credited with sinking 23 major Japanese ships (the third highest total for any U.S. Navy Submarine) for an approximate tonnage of 90,080. Silversides received the Presidential Unit Citation and 12 Battle Stars for her wartime service.",
    "uniqueType": "museum"
  },
  {
    "latitude": 43.2306035,
    "longitude": -86.3318967,
    "name": "United States Coast Guard Cutter McLane",
    "website": "https://www.museumships.us/coast-guard/mclane",
    "historic": "ship",
    "building": "yes",
    "start_date": "1927",
    "description": "During WWII conducted convoy escorts, anti-submarine patrols, and rescue of ships and aircraft in distress. Credited with the sinking of a Japanese Submarine in July 1942 and a multiple-person rescue of a downed aircraft in February 1943.",
    "uniqueType": "museum"
  },
  {
    "latitude": 46.7713558,
    "longitude": -84.9576136,
    "name": "1923 Surfboat House",
    "website": "https://www.shipwreckmuseum.com/shipwreck-museum/",
    "fee": "yes",
    "building": "yes",
    "start_date": "1923",
    "uniqueType": "museum"
  },
  {
    "latitude": 46.7710525,
    "longitude": -84.957806,
    "name": "Lighthouse Keeper's Quarters",
    "historic": "maritime",
    "building": "yes",
    "building_levels": "3",
    "start_date": "1861",
    "uniqueType": "museum"
  },
  {
    "latitude": 42.5645845,
    "longitude": -84.8364089,
    "name": "Courthouse Square Museum",
    "address_city": "Charlotte",
    "address_zipcode": "48813",
    "address_state": "MI",
    "address_number": "100",
    "address_street": "West Lawrence Avenue",
    "building": "yes",
    "uniqueType": "museum"
  },
  {
    "latitude": 44.0416072,
    "longitude": -85.6819187,
    "name": "Luther Museum",
    "museum": "local",
    "building": "yes",
    "uniqueType": "museum"
  },
  {
    "latitude": 45.7175351,
    "longitude": -86.6680142,
    "name": "A. Gene Gazlay Visitor Center",
    "address_city": "Garden",
    "address_zipcode": "49835",
    "address_state": "MI",
    "address_number": "4785",
    "address_street": "II Road",
    "phone": "+9066443351",
    "operator": "Michigan Department of Natural Resources",
    "wheelchair": "yes",
    "opening_hours": "Mo-Su 11:00-18:00",
    "fee": "no",
    "museum": "history",
    "building": "yes",
    "uniqueType": "museum"
  },
  {
    "latitude": 43.8863825,
    "longitude": -85.5173681,
    "name": "Old Rugged Cross Museum",
    "address_state": "MI",
    "fee": "no",
    "museum": "local",
    "building": "yes",
    "uniqueType": "museum"
  },
  {
    "latitude": 42.2850899,
    "longitude": -83.7481205,
    "name": "Museum On Main",
    "address_city": "Ann Arbor",
    "address_zipcode": "48104",
    "address_state": "MI",
    "address_number": "500",
    "address_street": "North Main Street",
    "building": "detached",
    "uniqueType": "museum"
  },
  {
    "latitude": 43.9554276,
    "longitude": -86.4466003,
    "address_city": "Ludington",
    "address_zipcode": "49431",
    "address_state": "MI",
    "address_number": "130",
    "address_street": "East Ludington Avenue",
    "phone": "+1-231-843-4808",
    "website": "https://www.masoncountymihistory.org/",
    "museum": "history",
    "building": "commercial",
    "uniqueType": "museum"
  },
  {
    "latitude": 43.6138422,
    "longitude": -83.8700537,
    "name": "USS Edson",
    "alt_name": "Saginaw Valley Naval Ship Museum",
    "address_city": "City of Bay City",
    "address_zipcode": "48706",
    "address_state": "MI",
    "address_number": "1680",
    "address_street": "Martin Street",
    "phone": "+1-989-684-3946",
    "website": "https://www.ussedson.org/",
    "historic": "ship",
    "opening_hours": "Mo-Fr 10:00-17:00; Sa,Su 09:00-18:00",
    "building": "ship",
    "uniqueType": "museum"
  },
  {
    "latitude": 42.5367744,
    "longitude": -83.1457333,
    "name": "Clawson Historical Museum",
    "address_city": "Clawson",
    "address_zipcode": "48017",
    "address_state": "MI",
    "address_number": "41",
    "address_street": "Fisher Court",
    "building": "detached",
    "uniqueType": "museum"
  },
  {
    "latitude": 47.4573197,
    "longitude": -88.1629303,
    "name": "The Rathbone School Museum",
    "address_city": "Eagle Harbor",
    "address_zipcode": "49950",
    "address_state": "MI",
    "address_number": "277",
    "address_street": "Center Street",
    "historic": "heritage",
    "wikipedia": "en:Eagle Harbor Schoolhouse",
    "building": "yes",
    "uniqueType": "museum"
  },
  {
    "latitude": 47.3924241,
    "longitude": -88.276584,
    "name": "The Bammert Blacksmith Shop",
    "website": "https://www.keweenawhistory.org/Bammert",
    "building": "yes",
    "uniqueType": "museum"
  },
  {
    "latitude": 42.6481939,
    "longitude": -83.3047764,
    "name": "Governor Moses Wisner House",
    "operator": "Oakland County Pioneer Historical Society",
    "museum": "history",
    "building": "yes",
    "uniqueType": "museum"
  },
  {
    "latitude": 43.3747985,
    "longitude": -86.4243356,
    "name": "White River Light Station",
    "website": "https://splka.org/whiteriver.html",
    "operator": "Sable Points Lightkeepers Association",
    "museum": "history",
    "building": "yes",
    "uniqueType": "museum"
  },
  {
    "latitude": 42.4064398,
    "longitude": -86.2737505,
    "name": "USCG South Haven Outbuilding",
    "website": "https://www.michiganmaritimemuseum.org/explore/exhibits/uscg-outbuilding/",
    "operator": "Michigan Maritime Museum",
    "historic": "maritime",
    "museum": "history",
    "building": "yes",
    "description": "The last surviving structure of the South Haven Life Saving Station. The small shed hosts the knot tying exhibit.",
    "uniqueType": "museum"
  },
  {
    "latitude": 42.406311,
    "longitude": -86.2733928,
    "name": "Jensen Annex #1",
    "website": "https://www.michiganmaritimemuseum.org/launching-a-legacy/jensen-property/",
    "operator": "Michigan Maritime Museum",
    "historic": "maritime",
    "museum": "history",
    "building": "yes",
    "uniqueType": "museum"
  },
  {
    "latitude": 42.6359328,
    "longitude": -83.3013096,
    "name": "Pontiac Transportation Museum",
    "address_city": "Pontiac",
    "address_zipcode": "48341",
    "address_state": "MI",
    "address_number": "250",
    "address_street": "West Pike Street",
    "building": "yes",
    "uniqueType": "museum"
  },
  {
    "latitude": 43.8597823,
    "longitude": -85.8480402,
    "name": "Shrine of the Pines",
    "phone": "+1-231-745-7892",
    "website": "https://www.theshrineofthepines.com/",
    "wikipedia": "en:Shrine of the Pines",
    "building": "yes",
    "uniqueType": "museum"
  },
  {
    "latitude": 43.856015,
    "longitude": -82.6529466,
    "name": "Old North Park Pavilion",
    "building": "yes",
    "description": "Contains a collection of antique agricultural equipment",
    "uniqueType": "museum"
  },
  {
    "latitude": 43.8556847,
    "longitude": -82.6532676,
    "name": "Grice House",
    "museum": "history",
    "building": "yes",
    "description": "Stone built house from 1873",
    "uniqueType": "museum"
  },
  {
    "latitude": 43.8562151,
    "longitude": -82.6534121,
    "name": "Schoolhouse",
    "building": "yes",
    "description": "Rural schoolhouse moved to site and preserved as a museum",
    "uniqueType": "museum"
  },
  {
    "latitude": 43.843604,
    "longitude": -82.651181,
    "name": "Frank Murphy Memorial Museum",
    "address_city": "Harbor Beach",
    "address_zipcode": "48441",
    "address_state": "MI",
    "address_number": "142",
    "address_street": "South Huron Avenue",
    "building": "retail",
    "uniqueType": "museum"
  },
  {
    "latitude": 43.843248,
    "longitude": -82.65079,
    "name": "Frank Murphy Museum",
    "operator": "City of Harbor Beach",
    "museum": "history",
    "building": "yes",
    "uniqueType": "museum"
  },
  {
    "latitude": 42.248885,
    "longitude": -84.218579,
    "name": "The Coe House Museum",
    "address_city": "Grass Lake",
    "address_zipcode": "49240",
    "address_state": "MI",
    "address_number": "371",
    "address_street": "West Michigan Avenue",
    "building": "yes",
    "uniqueType": "museum"
  },
  {
    "latitude": 42.5916414,
    "longitude": -83.0115315,
    "name": "Upton House Museum",
    "address_city": "Sterling Heights",
    "address_zipcode": "48313",
    "address_state": "MI",
    "address_number": "40433",
    "address_street": "Dodge Park Road",
    "phone": "+1-586-446-2495",
    "website": "https://www.sterlingheights.gov/789/Upton-House-Museum",
    "operator": "City of Sterling Heights",
    "opening_hours": "We 13:00-16:00",
    "museum": "history",
    "building": "yes",
    "uniqueType": "museum"
  },
  {
    "latitude": 42.6620813,
    "longitude": -83.035444,
    "name": "Packard Proving Grounds Historic Site",
    "museum": "history",
    "building": "yes",
    "uniqueType": "museum"
  },
  {
    "latitude": 42.6620489,
    "longitude": -83.0348485,
    "museum": "history",
    "building": "yes",
    "uniqueType": "museum"
  },
  {
    "latitude": 44.435152,
    "longitude": -83.6236241,
    "name": "Lumbering History Exhibit Area",
    "operator": "USFS",
    "building": "yes",
    "uniqueType": "museum"
  },
  {
    "latitude": 44.4355342,
    "longitude": -83.6236792,
    "name": "Civilian Conservation Corps Cabin",
    "operator": "USFS, HMNFs",
    "museum": "history",
    "building": "yes",
    "uniqueType": "museum"
  },
  {
    "latitude": 44.4345801,
    "longitude": -83.622196,
    "name": "Trapper's Cabin",
    "operator": "USFS",
    "museum": "history",
    "building": "yes",
    "uniqueType": "museum"
  },
  {
    "latitude": 42.4720046,
    "longitude": -82.950565,
    "name": "Michigan Military Technical & Historical Society Museum",
    "museum": "history",
    "building": "yes",
    "uniqueType": "museum"
  },
  {
    "latitude": 43.7258988,
    "longitude": -83.4424254,
    "name": "Luckhard Museum / The Indian Museum",
    "building": "yes",
    "uniqueType": "museum"
  },
  {
    "latitude": 43.4172494,
    "longitude": -86.3585529,
    "name": "Montague Museum",
    "building": "yes",
    "uniqueType": "museum"
  },
  {
    "latitude": 45.9217437,
    "longitude": -85.9124545,
    "name": "Seul Choix Pointe Lighthouse Museum",
    "website": "https://www.michigan.org/property/seul-choix-pointe-lighthouse",
    "building": "yes",
    "uniqueType": "museum"
  },
  {
    "latitude": 45.3186946,
    "longitude": -85.2427976,
    "name": "Railroad Depot Museum",
    "address_state": "MI",
    "building": "yes",
    "uniqueType": "museum"
  },
  {
    "latitude": 41.7534355,
    "longitude": -86.6847977,
    "name": "Hesston Steam Museum",
    "address_city": "La Porte",
    "address_zipcode": "46350",
    "address_state": "IN",
    "address_number": "1201",
    "address_street": "East 1000 North",
    "website": "https://hesston.org/",
    "operator": "Laporte County Historical Steam Society",
    "wikipedia": "en:Hesston Steam Museum",
    "museum": "railway",
    "uniqueType": "museum"
  },
  {
    "latitude": 43.8871975,
    "longitude": -85.7729499,
    "name": "Idlewild Historic and Cultural Center",
    "building": "yes",
    "uniqueType": "museum"
  },
  {
    "latitude": 42.4618949,
    "longitude": -85.6963236,
    "name": "Otsego Area Historical Society",
    "address_city": "Otsego",
    "address_zipcode": "49078",
    "address_state": "MI",
    "address_number": "218",
    "address_street": "North Farmer Street",
    "building": "yes",
    "uniqueType": "museum"
  },
  {
    "latitude": 44.4055672,
    "longitude": -85.7140501,
    "name": "Mesick Historical Museum",
    "building": "yes",
    "uniqueType": "museum"
  },
  {
    "latitude": 42.2330323,
    "longitude": -83.5135129,
    "name": "Roush Aeronautics Center",
    "building": "yes",
    "uniqueType": "museum"
  },
  {
    "latitude": 46.0975808,
    "longitude": -88.3323279,
    "name": "Harbour House Museum",
    "address_city": "Crystal Falls",
    "address_zipcode": "49920",
    "address_state": "MI",
    "address_number": "17",
    "address_street": "North 4th Street",
    "email": "cfharbourhouse@gmail.com",
    "phone": "906-875-4341",
    "website": "https://www.crystalfallsmuseum-harbourhouse.org/",
    "building": "yes",
    "uniqueType": "museum"
  },
  {
    "latitude": 47.4682738,
    "longitude": -87.8922944,
    "name": "Astor House Historical Museum",
    "phone": "906-289-4449",
    "website": "https://www.minnetonkaresort.com/museum.php",
    "operator": "Minnetonka Resort",
    "opening_hours": "Mo-Fr 10:00-17:00",
    "fee": "yes",
    "museum": "local",
    "building": "yes",
    "uniqueType": "museum"
  },
  {
    "latitude": 45.420188,
    "longitude": -83.8180986,
    "name": "Presque Isle County Historical Museum",
    "address_city": "Rogers City",
    "address_zipcode": "49779",
    "address_state": "MI",
    "address_number": "176",
    "address_street": "West Michigan Avenue",
    "phone": "+1-989-734-0123",
    "website": "https://pichmuseum.org",
    "operator": "Preque Isle County",
    "facebook": "https://www.facebook.com/profile.php?id=100076826558151",
    "opening_hours": "Tu-Sa 12:30-16:30",
    "museum": "history",
    "building": "yes",
    "uniqueType": "museum"
  },
  {
    "latitude": 45.4227573,
    "longitude": -83.8195685,
    "name": "Great Lakes Lore Maritime Museum",
    "address_city": "Rogers City",
    "address_zipcode": "49779",
    "address_state": "MI",
    "address_number": "367",
    "address_street": "North 3rd Street",
    "email": "TheLoreMuseum@gmail.com",
    "phone": "+1-989-734-0706",
    "website": "https://www.gllmm.com",
    "opening_hours": "Mo-Sa 11:00-16:00; Su 12:00-15:00",
    "museum": "maritime",
    "building": "yes",
    "description": "Specializing in Great Lakes shipping artifacts and memories",
    "uniqueType": "museum"
  },
  {
    "latitude": 42.3833857,
    "longitude": -85.9581932,
    "building": "yes",
    "uniqueType": "museum"
  },
  {
    "latitude": 41.9065809,
    "longitude": -86.0126714,
    "name": "Pioneer Log Cabin Museum",
    "address_city": "Cassopolis",
    "address_zipcode": "49031",
    "address_state": "MI",
    "address_number": "400",
    "address_street": "South Broadway Street",
    "building": "yes",
    "uniqueType": "museum"
  },
  {
    "latitude": 43.016902,
    "longitude": -82.9231631,
    "name": "Capac community historical museum",
    "building": "yes",
    "uniqueType": "museum"
  },
  {
    "latitude": 43.2803359,
    "longitude": -83.5299722,
    "name": "Millington-Arbela Historical Society",
    "building": "yes",
    "uniqueType": "museum"
  },
  {
    "latitude": 42.2666981,
    "longitude": -84.7978285,
    "name": "Brueckner Museum",
    "building": "yes",
    "uniqueType": "museum"
  },
  {
    "latitude": 45.0189141,
    "longitude": -84.6842269,
    "name": "Call of the Wild",
    "address_city": "Gaylord",
    "address_zipcode": "49735",
    "address_state": "MI",
    "address_number": "850",
    "address_street": "South Wisconsin Avenue",
    "email": "callofthewildgaylord@live.com",
    "phone": "+1-989-732-4336",
    "website": "https://www.callofthewildgaylord.com/",
    "building": "yes",
    "uniqueType": "museum"
  },
  {
    "latitude": 43.0469529,
    "longitude": -84.4535132,
    "name": "Rochester Colony Schoolhouse",
    "operator": "Rochester Colony Historical Society",
    "museum": "history",
    "building": "yes",
    "uniqueType": "museum"
  },
  {
    "latitude": 42.3217381,
    "longitude": -85.1752987,
    "name": "Kimball House Museum",
    "address_city": "Battle Creek",
    "address_zipcode": "49017",
    "address_state": "MI",
    "address_number": "196",
    "address_street": "Capital Avenue Northeast",
    "website": "https://hsbcmi.org/",
    "museum": "history",
    "building": "house",
    "uniqueType": "museum"
  },
  {
    "latitude": 43.1769815,
    "longitude": -83.8916632,
    "name": "Montrose Historical and Telephone Pioneer Museum",
    "address_city": "Montrose",
    "address_zipcode": "48457",
    "address_state": "MI",
    "address_number": "144",
    "address_street": "East Hickory Street",
    "building": "yes",
    "uniqueType": "museum"
  },
  {
    "latitude": 42.6195381,
    "longitude": -82.5297542,
    "name": "Algonac Clay Historical Museum",
    "address_city": "Algonac",
    "address_zipcode": "48001",
    "address_state": "MI",
    "address_number": "1240",
    "address_street": "Saint Clair River Drive",
    "building": "yes",
    "uniqueType": "museum"
  },
  {
    "latitude": 42.6190432,
    "longitude": -82.5310846,
    "name": "Maritime Museum",
    "address_city": "Algonac",
    "address_zipcode": "48001",
    "address_state": "MI",
    "address_number": "1117",
    "address_street": "Saint Clair River Drive",
    "building": "yes",
    "uniqueType": "museum"
  },
  {
    "latitude": 42.8861711,
    "longitude": -82.4843151,
    "name": "Wills Sainte Claire Museum",
    "address_city": "Marysville",
    "address_zipcode": "48040",
    "address_state": "MI",
    "address_number": "2408",
    "address_street": "Wills Street",
    "building": "yes",
    "uniqueType": "museum"
  },
  {
    "latitude": 42.9723052,
    "longitude": -82.4263913,
    "name": "Port Huron Museum",
    "address_city": "Port Huron",
    "address_zipcode": "48060",
    "address_state": "MI",
    "address_number": "1115",
    "address_street": "6th Street",
    "building": "yes",
    "uniqueType": "museum"
  },
  {
    "latitude": 42.8230809,
    "longitude": -82.488946,
    "name": "St Clair Historical Museum",
    "address_city": "Saint Clair",
    "address_zipcode": "48079",
    "address_state": "MI",
    "address_number": "308",
    "address_street": "South 4th Street",
    "building": "yes",
    "uniqueType": "museum"
  },
  {
    "latitude": 42.6964527,
    "longitude": -83.1159233,
    "name": "Rochester Hills Museum at Van Hoosen Farm",
    "address_city": "Rochester Hills",
    "address_zipcode": "48307",
    "address_state": "MI",
    "address_number": "1005",
    "address_street": "Van Hoosen Road",
    "website": "https://www.rochesterhills.org/departments/parks_and_natural_resources/museum/index.php",
    "opening_hours": "Mo-Fr 08:00-17:00",
    "payment_american_express": "yes",
    "payment_cash": "yes",
    "payment_credit_cards": "yes",
    "payment_debit_cards": "yes",
    "payment_discover_card": "yes",
    "payment_mastercard": "yes",
    "payment_visa": "yes",
    "building": "yes",
    "uniqueType": "museum"
  },
  {
    "latitude": 42.6552367,
    "longitude": -83.7547016,
    "name": "Florence B. Dearing Museum",
    "address_city": "Hartland",
    "address_zipcode": "48353",
    "address_state": "MI",
    "address_number": "3503",
    "address_street": "Avon Street",
    "building": "yes",
    "uniqueType": "museum"
  },
  {
    "latitude": 42.7935893,
    "longitude": -83.7058395,
    "name": "A. J. Phillips Museum, Fenton Historical Society",
    "address_city": "Fenton",
    "address_zipcode": "48430",
    "address_state": "MI",
    "address_number": "310",
    "address_street": "South Leroy Street",
    "website": "https://www.cityoffenton.org/171/AJ-Phillips-Fenton-Museum",
    "museum": "history",
    "building": "yes",
    "uniqueType": "museum"
  },
  {
    "latitude": 43.023613,
    "longitude": -83.07469,
    "name": "Imlay City Museum",
    "address_city": "Imlay City",
    "address_zipcode": "48444",
    "address_state": "MI",
    "address_number": "77",
    "address_street": "North Main Street",
    "building": "yes",
    "uniqueType": "museum"
  },
  {
    "latitude": 43.4076497,
    "longitude": -83.9849823,
    "name": "Saginaw Railway Museum",
    "address_city": "Saginaw",
    "address_zipcode": "48602",
    "address_state": "MI",
    "address_number": "900",
    "address_street": "Maple Street",
    "building": "yes",
    "uniqueType": "museum"
  },
  {
    "latitude": 43.4078604,
    "longitude": -84.4746441,
    "name": "Plank Road Museum",
    "address_city": "Breckenridge",
    "address_zipcode": "48615",
    "address_state": "MI",
    "address_number": "404",
    "address_street": "East Saginaw Street",
    "phone": "989-842-1241",
    "wheelchair": "yes",
    "museum": "local",
    "building": "yes",
    "uniqueType": "museum"
  },
  {
    "latitude": 43.1864219,
    "longitude": -84.1208307,
    "name": "Chesaning Area Historical",
    "address_city": "Chesaning",
    "address_zipcode": "48616",
    "address_state": "MI",
    "address_number": "602",
    "address_street": "West Broad Street",
    "building": "yes",
    "uniqueType": "museum"
  },
  {
    "latitude": 44.5001297,
    "longitude": -84.5934598,
    "name": "Au Sable River Center",
    "address_city": "Roscommon",
    "address_zipcode": "48653",
    "address_state": "MI",
    "address_number": "211",
    "address_street": "North Main Street",
    "building": "yes",
    "uniqueType": "museum"
  },
  {
    "latitude": 44.2752016,
    "longitude": -84.2375096,
    "name": "Ogemaw County Museum",
    "address_city": "West Branch",
    "address_zipcode": "48661",
    "address_state": "MI",
    "address_number": "135",
    "address_street": "South 2nd Street",
    "email": "oghs1978@gmail.com",
    "phone": "+1-989-701-2525",
    "website": "https://www.ogemawcountyhistoricalsociety.com/",
    "opening_hours": "Th-Fr 10:00-14:00",
    "building": "yes",
    "uniqueType": "museum"
  },
  {
    "latitude": 44.2783922,
    "longitude": -83.4946246,
    "name": "Iosco County Historical Museum",
    "address_city": "East Tawas",
    "address_zipcode": "48730",
    "address_state": "MI",
    "address_number": "405",
    "address_street": "West Bay Street",
    "building": "yes",
    "uniqueType": "museum"
  },
  {
    "latitude": 43.3666864,
    "longitude": -83.5886828,
    "name": "Vassar Historical Museum",
    "address_city": "Vassar",
    "address_zipcode": "48768",
    "address_state": "MI",
    "address_number": "450",
    "address_street": "South Main Street",
    "operator": "City of Vassar",
    "building": "yes",
    "uniqueType": "museum"
  },
  {
    "latitude": 43.1824055,
    "longitude": -85.2548925,
    "name": "Flat River Historical Museum",
    "address_city": "Greenville",
    "address_zipcode": "48838",
    "address_state": "MI",
    "address_number": "213",
    "address_street": "North Franklin Street",
    "building": "yes",
    "uniqueType": "museum"
  },
  {
    "latitude": 43.2915177,
    "longitude": -84.6090716,
    "name": "Gratiot County Area Historical Museum",
    "address_city": "Ithaca",
    "address_zipcode": "48847",
    "address_state": "MI",
    "address_number": "129",
    "address_street": "West Center Street",
    "building": "yes",
    "uniqueType": "museum"
  },
  {
    "latitude": 42.78684,
    "longitude": -85.1355466,
    "name": "Ionia County Genealogical Society",
    "address_city": "Lake Odessa",
    "address_zipcode": "48849",
    "address_state": "MI",
    "address_number": "1117",
    "address_street": "Emerson Street",
    "building": "yes",
    "uniqueType": "museum"
  },
  {
    "latitude": 42.6878708,
    "longitude": -84.2883383,
    "name": "Williamston Depot Museum",
    "address_city": "Williamston",
    "address_zipcode": "48895",
    "address_state": "MI",
    "address_number": "369",
    "address_street": "West Grand River Avenue",
    "building": "yes",
    "uniqueType": "museum"
  },
  {
    "latitude": 42.2140466,
    "longitude": -86.1127537,
    "name": "Van Buren Historical Society Museum",
    "address_city": "Hartford",
    "address_zipcode": "49057",
    "address_state": "MI",
    "address_number": "58471",
    "address_street": "Red Arrow Highway",
    "building": "yes",
    "uniqueType": "museum"
  },
  {
    "latitude": 42.2724004,
    "longitude": -84.9583653,
    "name": "American Museum of Magic",
    "address_city": "Marshall",
    "address_zipcode": "49068",
    "address_state": "MI",
    "address_number": "107",
    "address_street": "East Michigan Avenue",
    "building": "yes",
    "uniqueType": "museum"
  },
  {
    "latitude": 41.9436568,
    "longitude": -85.6319739,
    "name": "Sue Silliman House Museum",
    "address_city": "Three Rivers",
    "address_zipcode": "49093",
    "address_state": "MI",
    "address_number": "116",
    "address_street": "South Main Street",
    "building": "yes",
    "uniqueType": "museum"
  },
  {
    "latitude": 41.7983827,
    "longitude": -86.0848633,
    "name": "Edwardsburg Area Historical Museum",
    "address_city": "Edwardsburg",
    "address_zipcode": "49112",
    "address_state": "MI",
    "address_number": "26818",
    "address_street": "West Main Street",
    "building": "yes",
    "uniqueType": "museum"
  },
  {
    "latitude": 43.9772162,
    "longitude": -86.460039,
    "name": "Epworth Assembly",
    "building": "yes",
    "uniqueType": "museum"
  },
  {
    "latitude": 42.4510595,
    "longitude": -84.4314871,
    "name": "Leslie Area Historical Society & Museum",
    "address_city": "Leslie",
    "address_zipcode": "49251",
    "address_state": "MI",
    "address_number": "107",
    "address_street": "East Bellevue Street",
    "building": "yes",
    "uniqueType": "museum"
  },
  {
    "latitude": 43.2326618,
    "longitude": -86.2561251,
    "name": "Fire Barn Museum",
    "building": "yes",
    "uniqueType": "museum"
  },
  {
    "latitude": 43.2449661,
    "longitude": -86.1848331,
    "name": "Muskegon Railroad Historical Society",
    "building": "yes",
    "uniqueType": "museum"
  },
  {
    "latitude": 43.2018068,
    "longitude": -86.2440768,
    "name": "James Jackson Museum of African American History",
    "building": "yes",
    "uniqueType": "museum"
  },
  {
    "latitude": 43.0640483,
    "longitude": -85.9359437,
    "name": "Coopersville Historical Museum",
    "address_city": "Coopersville",
    "address_zipcode": "49404",
    "address_state": "MI",
    "address_number": "363",
    "address_street": "Main Street",
    "building": "yes",
    "uniqueType": "museum"
  },
  {
    "latitude": 44.3732422,
    "longitude": -86.0092748,
    "name": "Bottle House Museum",
    "building": "yes",
    "uniqueType": "museum"
  },
  {
    "latitude": 45.3176567,
    "longitude": -85.2612186,
    "name": "Charlevoix Historical Society",
    "building": "yes",
    "uniqueType": "museum"
  },
  {
    "latitude": 46.3524478,
    "longitude": -85.5153545,
    "name": "Luce County Historical Museum",
    "building": "yes",
    "uniqueType": "museum"
  },
  {
    "latitude": 44.5848489,
    "longitude": -84.7701155,
    "name": "Wellington Farm Park",
    "address_city": "Grayling",
    "address_zipcode": "49738",
    "address_state": "MI",
    "address_number": "6944",
    "address_street": "South Military Road",
    "building": "yes",
    "uniqueType": "museum"
  },
  {
    "latitude": 45.6394207,
    "longitude": -84.4831677,
    "name": "Sheriff’s House & Jail",
    "address_city": "Cheboygan",
    "address_zipcode": "49721",
    "address_state": "MI",
    "address_number": "404",
    "address_street": "South Huron Street",
    "operator": "The History Center of Cheboygan County",
    "museum": "history",
    "building": "yes",
    "description": "Original Cheboygan jailhouse and sheriff’s quarters.",
    "uniqueType": "museum"
  },
  {
    "latitude": 43.5251003,
    "longitude": -84.6974558,
    "name": "Railroad Depot Museum",
    "alt_name": "Train Museum",
    "address_city": "Shepherd",
    "address_state": "MI",
    "address_street": "West Wright Avenue",
    "website": "http://www.shepherdareahistoricalsociety.org/the-railroad-depot-museum/",
    "operator": "Shepherd Area Historical Society",
    "museum": "railway",
    "building": "yes",
    "uniqueType": "museum"
  },
  {
    "latitude": 44.7780569,
    "longitude": -84.0522362,
    "name": "Skyline Event Center",
    "alt_name": "Michigan Mazazine Museum",
    "address_city": "Comins",
    "address_zipcode": "48619",
    "address_state": "MI",
    "address_number": "3319",
    "address_street": "North Abbe Road",
    "email": "skylineeventcenterbooking@gmail.com",
    "phone": "+1-989-848-5780",
    "website": "https://sites.google.com/view/skylineeventcenter/home",
    "building": "yes",
    "uniqueType": "museum"
  },
  {
    "latitude": 43.6170055,
    "longitude": -83.8663083,
    "museum": "history",
    "uniqueType": "museum"
  },
  {
    "latitude": 43.8564743,
    "longitude": -82.6536372,
    "name": "Grice Museum Complex",
    "museum": "open_air",
    "uniqueType": "museum"
  },
  {
    "latitude": 45.6393499,
    "longitude": -84.4838723,
    "name": "Spies Heritage Hall",
    "address_city": "Cheboygan",
    "address_zipcode": "49721",
    "address_state": "MI",
    "address_number": "427",
    "address_street": "Court Street",
    "email": "cheboyganmuseum@gmail.com",
    "phone": "+1-231-627-9597",
    "website": "https://cheboyganhistorycenter.org/",
    "operator": "The History Center of Cheboygan County",
    "facebook": "https://www.facebook.com/cheboyganmuseum",
    "museum": "history",
    "building": "yes",
    "uniqueType": "museum"
  },
  {
    "latitude": 45.6392479,
    "longitude": -84.4831796,
    "name": "Native American Log Cabin",
    "address_city": "Cheboygan",
    "address_zipcode": "49721",
    "address_state": "MI",
    "address_number": "404",
    "address_street": "South Huron Street",
    "operator": "The History Center of Cheboygan County",
    "museum": "history",
    "building": "cabin",
    "uniqueType": "museum"
  },
  {
    "latitude": 45.6396085,
    "longitude": -84.4838969,
    "name": "The History Center of Cheboygan County",
    "address_city": "Cheboygan",
    "address_zipcode": "49721",
    "address_state": "MI",
    "address_street": "Court Street",
    "museum": "history",
    "uniqueType": "museum"
  },
  {
    "latitude": 43.981086,
    "longitude": -84.481221,
    "name": "Gladwin Historic Village",
    "museum": "open_air",
    "uniqueType": "museum"
  },
  {
    "latitude": 42.7874253,
    "longitude": -85.1352939,
    "name": "The Freight House",
    "operator": "Lake Odessa Historical Society",
    "building": "yes",
    "description": "New construction building for housing Lake Odessa Historical Society's collection",
    "uniqueType": "museum"
  },
  {
    "latitude": 42.787081,
    "longitude": -85.1351156,
    "name": "Pere Marquette Train Depot",
    "operator": "Lake Odessa Historical Society",
    "historic": "train_station",
    "building": "yes",
    "uniqueType": "museum"
  },
  {
    "latitude": 42.7878907,
    "longitude": -85.1350337,
    "operator": "Lake Odessa Historical Society",
    "museum": "open_air",
    "uniqueType": "museum"
  },
  {
    "latitude": 44.4366189,
    "longitude": -83.6250563,
    "name": "Wanigan",
    "museum": "history",
    "description": "Replica floating cook shack, similar to what would have been used in the logging days.",
    "uniqueType": "museum"
  },
  {
    "latitude": 45.0218766,
    "longitude": -85.7600737,
    "address_city": "Leland",
    "address_zipcode": "49654",
    "address_state": "MI",
    "address_number": "111",
    "address_street": "South Main Street",
    "building": "yes",
    "uniqueType": "museum"
  },
  {
    "latitude": 42.4049266,
    "longitude": -86.2713857,
    "name": "The Mitten Children's Museum",
    "address_city": "South Haven",
    "address_zipcode": "49090",
    "address_state": "MI",
    "address_number": "246",
    "address_street": "Broadway Street",
    "phone": "+1-269-767-7521",
    "website": "https://www.mittenmuseum.com/",
    "museum": "children",
    "building": "yes",
    "uniqueType": "museum"
  },
  {
    "latitude": 42.7891871,
    "longitude": -86.1178018,
    "name": "The Cappon House",
    "address_city": "Holland",
    "address_zipcode": "49423",
    "address_state": "MI",
    "address_number": "228",
    "address_street": "West 9th Street",
    "website": "https://hollandmuseum.org/venue/cappon-house/",
    "operator": "Holland Museum",
    "uniqueType": "museum"
  },
  {
    "latitude": 43.4052751,
    "longitude": -84.6061083,
    "name": "St Louis Area Historical Society",
    "building": "yes",
    "uniqueType": "museum"
  },
  {
    "latitude": 44.4583824,
    "longitude": -83.3583186,
    "name": "Wurtsmith Air Museum",
    "address_state": "MI",
    "website": "https://wurtsmithairmuseum.net/",
    "building": "hangar",
    "uniqueType": "museum"
  },
  {
    "latitude": 42.229801,
    "longitude": -85.559844,
    "name": "Air Zoo",
    "operator": "Kalamazoo Aviation History Museum",
    "wikipedia": "en:Air Zoo",
    "opening_hours": "Mo-Sa 09:00-17:00; Su 12:00-17:00",
    "fee": "yes",
    "uniqueType": "museum"
  },
  {
    "latitude": 46.4120309,
    "longitude": -86.6551032,
    "name": "Pictured Rocks Interpretive Center",
    "building": "yes",
    "uniqueType": "museum"
  },
  {
    "latitude": 45.9979641,
    "longitude": -84.3625223,
    "building": "yes",
    "uniqueType": "museum"
  },
  {
    "latitude": 43.1664292,
    "longitude": -83.5233515,
    "museum": "history",
    "building": "house",
    "uniqueType": "museum"
  },
  {
    "latitude": 44.2474894,
    "longitude": -86.3249464,
    "building": "yes",
    "uniqueType": "museum"
  },
  {
    "latitude": 43.9425874,
    "longitude": -82.7115847,
    "building": "yes",
    "uniqueType": "museum"
  },
  {
    "latitude": 43.0014738,
    "longitude": -84.845636,
    "name": "Old Pewamo Train Station",
    "building": "yes",
    "uniqueType": "museum"
  },
  {
    "latitude": 43.6029543,
    "longitude": -84.7141561,
    "name": "Ziibiwing Center",
    "address_city": "Mt. Pleasant",
    "address_zipcode": "48858",
    "address_state": "MI",
    "address_number": "6650",
    "address_street": "East Broadway Road",
    "website": "https://www.sagchip.org/ziibiwing/",
    "operator": "Saginaw Chippewa Indian Tribe",
    "museum": "living_history",
    "building": "yes",
    "uniqueType": "museum"
  },
  {
    "latitude": 45.0216085,
    "longitude": -85.7590494,
    "name": "Leelanau Historical Museum",
    "address_state": "MI",
    "phone": "+1-319-642-7018",
    "website": "https://www.leelanauhistory.org/",
    "building": "yes",
    "uniqueType": "museum"
  },
  {
    "latitude": 44.8732139,
    "longitude": -85.4250175,
    "name": "Guntzviller's Spirit of the Woods Museum",
    "address_city": "Elk Rapids",
    "address_zipcode": "49629",
    "address_state": "MI",
    "address_number": "11060",
    "address_street": "South US 31 Highway",
    "museum": "nature",
    "building": "yes",
    "uniqueType": "museum"
  },
  {
    "latitude": 43.5982423,
    "longitude": -84.745853,
    "name": "Discovery Museum",
    "building": "yes",
    "uniqueType": "museum"
  }
]